{
"type": "FeatureCollection",
"features": [
{
  "type": "Feature",
  "id": "way/198200659",
  "properties": {
    "building": "church",
    "denomination": "catholic",
    "name": "Shanghai Community Fellowship",
    "religion": "christian",
    "start_date": "1925-03-08",
    "id": "way/198200659"
  },
  "geometry": {
    "type": "Polygon",
    "coordinates": [
      [
        [
          121.4434153,
          31.2081505
        ],
        [
          121.4435954,
          31.2080535
        ],
        [
          121.4434516,
          31.2078583
        ],
        [
          121.4435464,
          31.2078072
        ],
        [
          121.4438071,
          31.2081613
        ],
        [
          121.4435322,
          31.2083094
        ],
        [
          121.4434153,
          31.2081505
        ]
      ]
    ]
  }
},
{
  "type": "Feature",
  "id": "way/198200663",
  "properties": {
    "addr:housenumber": "265",
    "addr:street": "Rue Bourgeat",
    "building": "house",
    "name": "Cathay Mansions",
    "start_date": "1928",
    "id": "way/198200663"
  },
  "geometry": {
    "type": "Polygon",
    "coordinates": [
      [
        [
          121.4559627,
          31.2225765
        ],
        [
          121.4559887,
          31.2224975
        ],
        [
          121.4558775,
          31.2224706
        ],
        [
          121.4559308,
          31.2223091
        ],
        [
          121.4565892,
          31.2224681
        ],
        [
          121.4565365,
          31.2226278
        ],
        [
          121.4564726,
          31.2226123
        ],
        [
          121.4564466,
          31.222691
        ],
        [
          121.4562991,
          31.2226554
        ],
        [
          121.4563233,
          31.222582
        ],
        [
          121.4561036,
          31.222529
        ],
        [
          121.4560787,
          31.2226045
        ],
        [
          121.4559627,
          31.2225765
        ]
      ]
    ]
  }
},
{
  "type": "Feature",
  "id": "way/198200664",
  "properties": {
    "addr:housenumber": "870",
    "addr:street": "Avenue Joffre",
    "amenity": "cinema",
    "building": "yes",
    "name": "Cathay Theatre",
    "start_date": "1932",
    "id": "way/198200664"
  },
  "geometry": {
    "type": "Polygon",
    "coordinates": [
      [
        [
          121.4566679,
          31.2199852
        ],
        [
          121.4567097,
          31.2198587
        ],
        [
          121.4568083,
          31.2198003
        ],
        [
          121.4569031,
          31.2198133
        ],
        [
          121.4568652,
          31.2199236
        ],
        [
          121.4570017,
          31.2199495
        ],
        [
          121.4569752,
          31.2200468
        ],
        [
          121.4566679,
          31.2199852
        ]
      ]
    ]
  }
},
{
  "type": "Feature",
  "id": "way/198200735",
  "properties": {
    "building": "church",
    "name": "Moore Memorial Church",
    "name:zh": "慕爾堂",
    "start_date": "1887",
    "id": "way/198200735"
  },
  "geometry": {
    "type": "Polygon",
    "coordinates": [
      [
        [
          121.471156,
          31.235264
        ],
        [
          121.4712424,
          31.2350737
        ],
        [
          121.4717082,
          31.2352285
        ],
        [
          121.4716218,
          31.2354187
        ],
        [
          121.471156,
          31.235264
        ]
      ]
    ]
  }
},
{
  "type": "Feature",
  "id": "way/198200879",
  "properties": {
    "addr:housenumber": "216",
    "addr:street": "Bubbling Well Road",
    "amenity": "cinema",
    "building": "yes",
    "name": "Grand Theatre",
    "name:zh": "大光明影戯院",
    "start_date": "1932",
    "id": "way/198200879"
  },
  "geometry": {
    "type": "Polygon",
    "coordinates": [
      [
        [
          121.4664163,
          31.2348144
        ],
        [
          121.4666045,
          31.2347023
        ],
        [
          121.4667208,
          31.234845
        ],
        [
          121.4668295,
          31.2349784
        ],
        [
          121.4666413,
          31.2350905
        ],
        [
          121.4664163,
          31.2348144
        ]
      ]
    ]
  }
},
{
  "type": "Feature",
  "id": "way/198200881",
  "properties": {
    "addr:housenumber": "150",
    "addr:street": "Bubbling Well Road",
    "building": "house",
    "name": "Foreign Y.M.C.A. Headquarters",
    "name:zh": "西青年會",
    "start_date": "1932",
    "id": "way/198200881"
  },
  "geometry": {
    "type": "Polygon",
    "coordinates": [
      [
        [
          121.4671545,
          31.2357562
        ],
        [
          121.4673484,
          31.2354979
        ],
        [
          121.4674774,
          31.2355687
        ],
        [
          121.4675993,
          31.2356356
        ],
        [
          121.4674054,
          31.2358939
        ],
        [
          121.4671545,
          31.2357562
        ]
      ]
    ]
  }
},
{
  "type": "Feature",
  "id": "way/198200882",
  "properties": {
    "addr:housenumber": "164",
    "addr:street": "Bubbling Well Road",
    "building": "yes",
    "name": "Park Hotel",
    "start_date": "1933",
    "tourism": "hotel",
    "id": "way/198200882"
  },
  "geometry": {
    "type": "Polygon",
    "coordinates": [
      [
        [
          121.4666707,
          31.2357178
        ],
        [
          121.4670913,
          31.2353053
        ],
        [
          121.4672156,
          31.2353903
        ],
        [
          121.4673181,
          31.2354743
        ],
        [
          121.4668975,
          31.2358868
        ],
        [
          121.4666707,
          31.2357178
        ]
      ]
    ]
  }
},
{
  "type": "Feature",
  "id": "way/198200896",
  "properties": {
    "addr:housenumber": "32/35",
    "addr:street": "The Bund",
    "amenity": "embassy",
    "building": "yes",
    "country": "GB",
    "name": "British Consulate",
    "start_date": "1872",
    "id": "way/198200896"
  },
  "geometry": {
    "type": "Polygon",
    "coordinates": [
      [
        [
          121.4838467,
          31.2443718
        ],
        [
          121.4839647,
          31.2440049
        ],
        [
          121.4843295,
          31.2440967
        ],
        [
          121.4842114,
          31.2444544
        ],
        [
          121.4838467,
          31.2443718
        ]
      ]
    ]
  }
},
{
  "type": "Feature",
  "id": "way/198200897",
  "properties": {
    "addr:housenumber": "29",
    "addr:street": "The Bund",
    "amenity": "bank",
    "building": "yes",
    "name": "Banque de l'Indochine",
    "start_date": "1914",
    "id": "way/198200897"
  },
  "geometry": {
    "type": "Polygon",
    "coordinates": [
      [
        [
          121.4848483,
          31.2434787
        ],
        [
          121.4848461,
          31.2430893
        ],
        [
          121.4855111,
          31.2430866
        ],
        [
          121.4855096,
          31.2432665
        ],
        [
          121.4855133,
          31.243476
        ],
        [
          121.4848483,
          31.2434787
        ]
      ]
    ]
  }
},
{
  "type": "Feature",
  "id": "way/198200902",
  "properties": {
    "addr:housenumber": "20",
    "addr:street": "Nanking Road",
    "building": "yes",
    "name": "Sassoon House - Cathay Hotel",
    "start_date": "1929",
    "tourism": "hotel",
    "id": "way/198200902"
  },
  "geometry": {
    "type": "Polygon",
    "coordinates": [
      [
        [
          121.4841219,
          31.2413704
        ],
        [
          121.4840915,
          31.2409325
        ],
        [
          121.4840346,
          31.2409293
        ],
        [
          121.4841029,
          31.2407963
        ],
        [
          121.4846948,
          31.2409013
        ],
        [
          121.4852864,
          31.2410039
        ],
        [
          121.4853281,
          31.2410428
        ],
        [
          121.4853209,
          31.2411406
        ],
        [
          121.4853168,
          31.2412147
        ],
        [
          121.4852523,
          31.2412828
        ],
        [
          121.4841219,
          31.2413704
        ]
      ]
    ]
  }
},
{
  "type": "Feature",
  "id": "way/198200903",
  "properties": {
    "addr:housenumber": "23",
    "addr:street": "Nanking Road",
    "building": "yes",
    "name": "Palace Hotel",
    "start_date": "1906",
    "tourism": "hotel",
    "id": "way/198200903"
  },
  "geometry": {
    "type": "Polygon",
    "coordinates": [
      [
        [
          121.4844575,
          31.2406437
        ],
        [
          121.4845151,
          31.2404273
        ],
        [
          121.4851355,
          31.2405235
        ],
        [
          121.4851221,
          31.2405808
        ],
        [
          121.4853259,
          31.2406221
        ],
        [
          121.4852892,
          31.2408056
        ],
        [
          121.4844575,
          31.2406437
        ]
      ]
    ]
  }
},
{
  "type": "Feature",
  "id": "way/198200904",
  "properties": {
    "addr:housenumber": "18",
    "addr:street": "The Bund",
    "amenity": "bank",
    "building": "yes",
    "building:levels": "5",
    "name": "Chartered Bank of India, Australia and China",
    "start_date": "1923",
    "id": "way/198200904"
  },
  "geometry": {
    "type": "Polygon",
    "coordinates": [
      [
        [
          121.4847466,
          31.2403882
        ],
        [
          121.4848378,
          31.2401428
        ],
        [
          121.4852696,
          31.2402529
        ],
        [
          121.4853769,
          31.240262
        ],
        [
          121.4853554,
          31.2404088
        ],
        [
          121.4853367,
          31.2405579
        ],
        [
          121.4852213,
          31.2405464
        ],
        [
          121.485224,
          31.2405235
        ],
        [
          121.4847466,
          31.2403882
        ]
      ]
    ]
  }
},
{
  "type": "Feature",
  "id": "way/198200905",
  "properties": {
    "addr:housenumber": "16",
    "addr:street": "The Bund",
    "amenity": "bank",
    "building": "yes",
    "name": "Bank of Taiwan",
    "name:zh": "臺灣銀行",
    "start_date": "1926",
    "id": "way/198200905"
  },
  "geometry": {
    "type": "Polygon",
    "coordinates": [
      [
        [
          121.4849466,
          31.2399219
        ],
        [
          121.485011,
          31.2397792
        ],
        [
          121.4854435,
          31.2398846
        ],
        [
          121.4854169,
          31.240024
        ],
        [
          121.4851893,
          31.2399738
        ],
        [
          121.4851931,
          31.2399446
        ],
        [
          121.485049,
          31.2399186
        ],
        [
          121.4850319,
          31.2399413
        ],
        [
          121.4849466,
          31.2399219
        ]
      ]
    ]
  }
},
{
  "type": "Feature",
  "id": "way/198200906",
  "properties": {
    "addr:street": "The Bund",
    "amenity": "bank",
    "building": "yes",
    "name": "Russo-asiatic Bank",
    "start_date": "1903",
    "id": "way/198200906"
  },
  "geometry": {
    "type": "Polygon",
    "coordinates": [
      [
        [
          121.4850221,
          31.2397203
        ],
        [
          121.4851018,
          31.2393887
        ],
        [
          121.4855133,
          31.239461
        ],
        [
          121.4854727,
          31.2396299
        ],
        [
          121.4854336,
          31.2397926
        ],
        [
          121.4850221,
          31.2397203
        ]
      ]
    ]
  }
},
{
  "type": "Feature",
  "id": "way/198200907",
  "properties": {
    "building": "house",
    "name": "Custom House",
    "start_date": "1927-12-19",
    "id": "way/198200907"
  },
  "geometry": {
    "type": "Polygon",
    "coordinates": [
      [
        [
          121.4853352,
          31.2387995
        ],
        [
          121.4853442,
          31.238736
        ],
        [
          121.4853715,
          31.2387388
        ],
        [
          121.4854037,
          31.2385125
        ],
        [
          121.4853869,
          31.2385107
        ],
        [
          121.485396,
          31.2384472
        ],
        [
          121.485466,
          31.2384545
        ],
        [
          121.4854633,
          31.2384728
        ],
        [
          121.48558,
          31.2384851
        ],
        [
          121.4855876,
          31.2384673
        ],
        [
          121.4856609,
          31.2384746
        ],
        [
          121.4856505,
          31.2385508
        ],
        [
          121.4856334,
          31.2385491
        ],
        [
          121.4856051,
          31.2387562
        ],
        [
          121.4856201,
          31.2387577
        ],
        [
          121.4856103,
          31.2388284
        ],
        [
          121.4855304,
          31.2388204
        ],
        [
          121.4855344,
          31.2387916
        ],
        [
          121.4854113,
          31.238779
        ],
        [
          121.4854074,
          31.238807
        ],
        [
          121.4853352,
          31.2387995
        ]
      ]
    ]
  }
},
{
  "type": "Feature",
  "id": "way/198200909",
  "properties": {
    "addr:housenumber": "14",
    "addr:street": "The Bund",
    "amenity": "bank",
    "building": "yes",
    "name": "Bank of Communication",
    "name:zh": "交通銀行",
    "start_date": "1940",
    "id": "way/198200909"
  },
  "geometry": {
    "type": "Polygon",
    "coordinates": [
      [
        [
          121.4853004,
          31.239173
        ],
        [
          121.4853539,
          31.238953
        ],
        [
          121.4856118,
          31.2389988
        ],
        [
          121.4855848,
          31.2391101
        ],
        [
          121.4855584,
          31.2392188
        ],
        [
          121.4853004,
          31.239173
        ]
      ]
    ]
  }
},
{
  "type": "Feature",
  "id": "way/198200910",
  "properties": {
    "addr:housenumber": "17",
    "addr:street": "The Bund",
    "building": "yes",
    "building:levels": "9",
    "name": "North China Daily News",
    "name:zh": "字林西報",
    "office": "newspaper",
    "start_date": "1924",
    "id": "way/198200910"
  },
  "geometry": {
    "type": "Polygon",
    "coordinates": [
      [
        [
          121.4848607,
          31.2401091
        ],
        [
          121.4849195,
          31.2399551
        ],
        [
          121.4854089,
          31.2400718
        ],
        [
          121.4853823,
          31.2402421
        ],
        [
          121.4848607,
          31.2401091
        ]
      ]
    ]
  }
},
{
  "type": "Feature",
  "id": "way/198200914",
  "properties": {
    "addr:housenumber": "34",
    "building": "yes",
    "name": "Great Northern Cable Office",
    "name:zh": "大北电报局",
    "office": "telecommunication",
    "start_date": "1908",
    "id": "way/198200914"
  },
  "geometry": {
    "type": "Polygon",
    "coordinates": [
      [
        [
          121.4857745,
          31.2371359
        ],
        [
          121.4859054,
          31.2368927
        ],
        [
          121.4861339,
          31.2369826
        ],
        [
          121.486003,
          31.2372259
        ],
        [
          121.4857745,
          31.2371359
        ]
      ]
    ]
  }
},
{
  "type": "Feature",
  "id": "way/198200916",
  "properties": {
    "addr:housenumber": "5",
    "addr:street": "The Bund",
    "building": "commercial",
    "name": "Nisshin Kisen Kaisha",
    "name:zh": "日進汽船会社",
    "start_date": "1925",
    "id": "way/198200916"
  },
  "geometry": {
    "type": "Polygon",
    "coordinates": [
      [
        [
          121.4858033,
          31.2363766
        ],
        [
          121.4858811,
          31.2361933
        ],
        [
          121.4864501,
          31.2363669
        ],
        [
          121.486488,
          31.236422
        ],
        [
          121.4864332,
          31.2364805
        ],
        [
          121.4863799,
          31.2365453
        ],
        [
          121.4858033,
          31.2363766
        ]
      ]
    ]
  }
},
{
  "type": "Feature",
  "id": "way/198200917",
  "properties": {
    "building": "yes",
    "name": "Union Building",
    "name:zh": "有利大樓",
    "start_date": "1916",
    "id": "way/198200917"
  },
  "geometry": {
    "type": "Polygon",
    "coordinates": [
      [
        [
          121.4859267,
          31.236111
        ],
        [
          121.4860139,
          31.2358953
        ],
        [
          121.4867517,
          31.2360688
        ],
        [
          121.4866834,
          31.2361758
        ],
        [
          121.4866246,
          31.2362829
        ],
        [
          121.4865507,
          31.2362974
        ],
        [
          121.4862529,
          31.2362083
        ],
        [
          121.4859267,
          31.236111
        ]
      ]
    ]
  }
},
{
  "type": "Feature",
  "id": "way/198200918",
  "properties": {
    "building": "yes",
    "name": "Shanghai Club",
    "name:zh": "上海總會",
    "start_date": "1909",
    "id": "way/198200918"
  },
  "geometry": {
    "type": "Polygon",
    "coordinates": [
      [
        [
          121.4862469,
          31.2358757
        ],
        [
          121.4863484,
          31.2355823
        ],
        [
          121.4867418,
          31.2356819
        ],
        [
          121.4867498,
          31.2356588
        ],
        [
          121.4869145,
          31.2357005
        ],
        [
          121.486805,
          31.2360169
        ],
        [
          121.4862469,
          31.2358757
        ]
      ]
    ]
  }
},
{
  "type": "Feature",
  "id": "way/198200919",
  "properties": {
    "building": "yes",
    "name": "Aisa Building",
    "name:zh": "亚细亚大楼",
    "start_date": "1915",
    "id": "way/198200919"
  },
  "geometry": {
    "type": "Polygon",
    "coordinates": [
      [
        [
          121.4865221,
          31.2355822
        ],
        [
          121.4866469,
          31.2352306
        ],
        [
          121.4870444,
          31.2353337
        ],
        [
          121.4869196,
          31.2356853
        ],
        [
          121.4865221,
          31.2355822
        ]
      ]
    ]
  }
},
{
  "type": "Feature",
  "id": "way/198757929",
  "properties": {
    "building": "yes",
    "name": "东方明珠广播电视塔",
    "start_date": "1994",
    "id": "way/198757929"
  },
  "geometry": {
    "type": "Polygon",
    "coordinates": [
      [
        [
          121.496351,
          31.2413444
        ],
        [
          121.4957552,
          31.2416467
        ],
        [
          121.4958347,
          31.2418424
        ],
        [
          121.4957242,
          31.2422015
        ],
        [
          121.495404,
          31.242391
        ],
        [
          121.495151,
          31.2424034
        ],
        [
          121.4949023,
          31.2423141
        ],
        [
          121.4947598,
          31.242165
        ],
        [
          121.4946831,
          31.2419977
        ],
        [
          121.4946828,
          31.2417944
        ],
        [
          121.4947929,
          31.2415661
        ],
        [
          121.4949963,
          31.2414422
        ],
        [
          121.4952235,
          31.2413885
        ],
        [
          121.4954081,
          31.2413614
        ],
        [
          121.4955454,
          31.2408247
        ],
        [
          121.495803,
          31.2408809
        ],
        [
          121.4959793,
          31.2409784
        ],
        [
          121.4961595,
          31.2410922
        ],
        [
          121.496351,
          31.2413444
        ]
      ]
    ]
  }
},
{
  "type": "Feature",
  "id": "way/198757930",
  "properties": {
    "building": "commercial",
    "name": "上海金茂大厦",
    "start_date": "1999",
    "id": "way/198757930"
  },
  "geometry": {
    "type": "Polygon",
    "coordinates": [
      [
        [
          121.5005008,
          31.2380023
        ],
        [
          121.5004902,
          31.2366995
        ],
        [
          121.5018134,
          31.2364653
        ],
        [
          121.5018932,
          31.2377459
        ],
        [
          121.5005008,
          31.2380023
        ]
      ]
    ]
  }
},
{
  "type": "Feature",
  "id": "way/198757931",
  "properties": {
    "building": "commercial",
    "name": "上海中心大厦",
    "start_date": "2016",
    "id": "way/198757931"
  },
  "geometry": {
    "type": "Polygon",
    "coordinates": [
      [
        [
          121.5000194,
          31.2362938
        ],
        [
          121.5002366,
          31.2349152
        ],
        [
          121.5021447,
          31.2350002
        ],
        [
          121.5019516,
          31.2361647
        ],
        [
          121.5000194,
          31.2362938
        ]
      ]
    ]
  }
},
{
  "type": "Feature",
  "id": "way/198757932",
  "properties": {
    "building": "commercial",
    "name": "上海环球金融中心",
    "start_date": "2008",
    "id": "way/198757932"
  },
  "geometry": {
    "type": "Polygon",
    "coordinates": [
      [
        [
          121.5023527,
          31.2376048
        ],
        [
          121.5025115,
          31.2355493
        ],
        [
          121.5038936,
          31.2356784
        ],
        [
          121.5037721,
          31.2371357
        ],
        [
          121.5023527,
          31.2376048
        ]
      ]
    ]
  }
},
{
  "type": "Feature",
  "id": "way/198757933",
  "properties": {
    "building": "yes",
    "name": "上海国际会议中心",
    "start_date": "1999",
    "id": "way/198757933"
  },
  "geometry": {
    "type": "Polygon",
    "coordinates": [
      [
        [
          121.4926333,
          31.2421615
        ],
        [
          121.4921383,
          31.2419774
        ],
        [
          121.4918751,
          31.2416074
        ],
        [
          121.4917278,
          31.2413203
        ],
        [
          121.4917116,
          31.2410032
        ],
        [
          121.4932171,
          31.2416173
        ],
        [
          121.4927907,
          31.2420148
        ],
        [
          121.4926333,
          31.2421615
        ]
      ]
    ]
  }
},
{
  "type": "Feature",
  "id": "way/198757934",
  "properties": {
    "building": "commercial",
    "name": "震旦国际大楼",
    "start_date": "2003",
    "id": "way/198757934"
  },
  "geometry": {
    "type": "Polygon",
    "coordinates": [
      [
        [
          121.4949643,
          31.2369544
        ],
        [
          121.4947877,
          31.2367208
        ],
        [
          121.494847,
          31.2364554
        ],
        [
          121.4950005,
          31.2361659
        ],
        [
          121.4953673,
          31.2363037
        ],
        [
          121.4952396,
          31.2369195
        ],
        [
          121.4949643,
          31.2369544
        ]
      ]
    ]
  }
},
{
  "type": "Feature",
  "id": "way/198757935",
  "properties": {
    "building": "yes",
    "name": "中国2010年上海世博会中国国家馆",
    "start_date": "2010",
    "id": "way/198757935"
  },
  "geometry": {
    "type": "Polygon",
    "coordinates": [
      [
        [
          121.4903437,
          31.1879663
        ],
        [
          121.4891113,
          31.1871986
        ],
        [
          121.48946,
          31.1855781
        ],
        [
          121.491148,
          31.1858697
        ],
        [
          121.4920028,
          31.1866385
        ],
        [
          121.4918315,
          31.1867755
        ],
        [
          121.4903437,
          31.1879663
        ]
      ]
    ]
  }
},
{
  "type": "Feature",
  "id": "way/198757936",
  "properties": {
    "building": "yes",
    "name": "上海世博展览馆",
    "start_date": "2009",
    "id": "way/198757936"
  },
  "geometry": {
    "type": "Polygon",
    "coordinates": [
      [
        [
          121.4837579,
          31.185059
        ],
        [
          121.4841757,
          31.1831939
        ],
        [
          121.4870945,
          31.1836816
        ],
        [
          121.486727,
          31.1855718
        ],
        [
          121.4837579,
          31.185059
        ]
      ]
    ]
  }
}
]
}
