{
  "type": "Feature",
  "properties": {
    "name": "Zhabei",
    "color": "#ff8c00"
  },
  "geometry": {
    "type": "Polygon",
    "coordinates": [
      [
        [
          121.445921,
          31.251186
        ],
        [
          121.445853,
          31.250601
        ],
        [
          121.445758,
          31.250201
        ],
        [
          121.445622,
          31.249857
        ],
        [
          121.445319,
          31.249343
        ],
        [
          121.444903,
          31.248767
        ],
        [
          121.444019,
          31.247836
        ],
        [
          121.443458,
          31.247287
        ],
        [
          121.443247,
          31.246814
        ],
        [
          121.443346,
          31.246389
        ],
        [
          121.444059,
          31.245745
        ],
        [
          121.44554,
          31.244748
        ],
        [
          121.447734,
          31.243398
        ],
        [
          121.448491,
          31.242772
        ],
        [
          121.449606,
          31.241619
        ],
        [
          121.45106,
          31.240344
        ],
        [
          121.45253,
          31.239646
        ],
        [
          121.453388,
          31.239702
        ],
        [
          121.454066,
          31.23991
        ],
        [
          121.454718,
          31.240334
        ],
        [
          121.455244,
          31.240747
        ],
        [
          121.455731,
          31.241361
        ],
        [
          121.456424,
          31.242206
        ],
        [
          121.457154,
          31.242701
        ],
        [
          121.458023,
          31.242958
        ],
        [
          121.458924,
          31.243059
        ],
        [
          121.459782,
          31.242995
        ],
        [
          121.461166,
          31.242628
        ],
        [
          121.462068,
          31.242316
        ],
        [
          121.462914,
          31.241712
        ],
        [
          121.463795,
          31.241233
        ],
        [
          121.464761,
          31.240967
        ],
        [
          121.465297,
          31.240931
        ],
        [
          121.465973,
          31.241013
        ],
        [
          121.466585,
          31.241243
        ],
        [
          121.466894,
          31.241373
        ],
        [
          121.466123,
          31.246656
        ],
        [
          121.469325,
          31.247447
        ],
        [
          121.46893,
          31.248342
        ],
        [
          121.470341,
          31.248869
        ],
        [
          121.46934,
          31.250574
        ],
        [
          121.467247,
          31.250103
        ],
        [
          121.462762,
          31.247553
        ],
        [
          121.445704,
          31.25357
        ],
        [
          121.445921,
          31.251186
        ]
      ]
    ]
  }
}