{
  "type": "Feature",
  "properties": {
    "name": "Paoshan",
    "color": "#2e8b57"
  },
  "geometry": {
    "type": "Polygon",
    "coordinates": [
      [
        [
          121.42471364449864,
          31.266604193711768
        ],
        [
          121.424753239456,
          31.266060493042367
        ],
        [
          121.42485676643388,
          31.26552297552018
        ],
        [
          121.42502316921382,
          31.264997119480814
        ],
        [
          121.42525075082716,
          31.264488284316716
        ],
        [
          121.43297562408557,
          31.2495255
        ],
        [
          121.4330891,
          31.2495255
        ],
        [
          121.4332929,
          31.2496355
        ],
        [
          121.4335289,
          31.2499015
        ],
        [
          121.4339259,
          31.2507454
        ],
        [
          121.4346126,
          31.2523596
        ],
        [
          121.4350632,
          31.2537905
        ],
        [
          121.4353207,
          31.2544141
        ],
        [
          121.4354923,
          31.2546068
        ],
        [
          121.4356854,
          31.254726
        ],
        [
          121.4359,
          31.254726
        ],
        [
          121.4361253,
          31.2546801
        ],
        [
          121.4364043,
          31.2545242
        ],
        [
          121.4367047,
          31.2542032
        ],
        [
          121.4370587,
          31.2535703
        ],
        [
          121.4373484,
          31.2521212
        ],
        [
          121.4376166,
          31.2517635
        ],
        [
          121.4378634,
          31.2515617
        ],
        [
          121.4383033,
          31.2513691
        ],
        [
          121.4387861,
          31.2512865
        ],
        [
          121.438849478354,
          31.25128950837962
        ],
        [
          121.43899161490603,
          31.25151174770848
        ],
        [
          121.43891574396531,
          31.252378471429044
        ],
        [
          121.43889992138119,
          31.252909219655077
        ],
        [
          121.43894518797423,
          31.25343872804804
        ],
        [
          121.43905110652634,
          31.253961870284652
        ],
        [
          121.43921665258894,
          31.254473581589796
        ],
        [
          121.43944022436342,
          31.25496890777513
        ],
        [
          121.43971965817438,
          31.255443053210143
        ],
        [
          121.44005224938722,
          31.255891427260806
        ],
        [
          121.44043477856847,
          31.256309688745937
        ],
        [
          121.44086354263676,
          31.25669378798016
        ],
        [
          121.44133439070337,
          31.2570400059961
        ],
        [
          121.44184276425588,
          31.25734499056523
        ],
        [
          121.44238374129571,
          31.257605788668116
        ],
        [
          121.44295208400239,
          31.257819875099074
        ],
        [
          121.44354228946217,
          31.25798517692755
        ],
        [
          121.44414864296952,
          31.25810009357914
        ],
        [
          121.44476527338408,
          31.258163512340914
        ],
        [
          121.44538621000608,
          31.258174819141065
        ],
        [
          121.44600544041829,
          31.258133904497786
        ],
        [
          121.44661696873274,
          31.25804116457995
        ],
        [
          121.44721487367734,
          31.257897497369132
        ],
        [
          121.46002548997144,
          31.25422829856681
        ],
        [
          121.46061904020357,
          31.254029222510738
        ],
        [
          121.46118606590248,
          31.253779969158952
        ],
        [
          121.46172078053624,
          31.253483082259216
        ],
        [
          121.46200319002658,
          31.25328901743227
        ],
        [
          121.46630123677039,
          31.25529704336799
        ],
        [
          121.46685241591541,
          31.255525576260574
        ],
        [
          121.46742691599232,
          31.255707355521242
        ],
        [
          121.46801932509763,
          31.25584066871618
        ],
        [
          121.4686240625349,
          31.255924259975238
        ],
        [
          121.46923543141095,
          31.255957341828502
        ],
        [
          121.46984767232946,
          31.255939602628473
        ],
        [
          121.47045501767487,
          31.25587120948741
        ],
        [
          121.4710517459738,
          31.255752806702244
        ],
        [
          121.47163223582089,
          31.255585509681904
        ],
        [
          121.47219101885953,
          31.255370894434392
        ],
        [
          121.472722831317,
          31.255110982713013
        ],
        [
          121.47322266360815,
          31.25480822296179
        ],
        [
          121.47368580753891,
          31.254465467240212
        ],
        [
          121.47410790066445,
          31.254085944345015
        ],
        [
          121.474484967384,
          31.253673229382898
        ],
        [
          121.47481345638464,
          31.25323121008106
        ],
        [
          121.47509027408175,
          31.252764050153854
        ],
        [
          121.47522215338967,
          31.252474915509957
        ],
        [
          121.4769718,
          31.253025
        ],
        [
          121.4787621,
          31.2540886
        ],
        [
          121.4789594,
          31.253907
        ],
        [
          121.4810684,
          31.2551263
        ],
        [
          121.4809015,
          31.2553079
        ],
        [
          121.4812808,
          31.2558526
        ],
        [
          121.4810988,
          31.2560472
        ],
        [
          121.481645,
          31.2566957
        ],
        [
          121.4823885,
          31.257448
        ],
        [
          121.4823885,
          31.2576555
        ],
        [
          121.4822823,
          31.2579409
        ],
        [
          121.5555448,
          31.2814706
        ],
        [
          121.5557,
          31.2796737
        ],
        [
          121.5556247,
          31.2796651
        ],
        [
          121.5558545,
          31.2775894
        ],
        [
          121.5559348,
          31.2775901
        ],
        [
          121.5560195,
          31.2767618
        ],
        [
          121.5560751,
          31.2761847
        ],
        [
          121.5560749,
          31.2761497
        ],
        [
          121.556072,
          31.2761118
        ],
        [
          121.55606402668705,
          31.276058723916794
        ],
        [
          121.55723185300842,
          31.276434566452302
        ],
        [
          121.55780482224785,
          31.276646971599426
        ],
        [
          121.55835043638466,
          31.27690671849265
        ],
        [
          121.5588633567097,
          31.277211265685462
        ],
        [
          121.55933856426311,
          31.277557633364367
        ],
        [
          121.55977140893441,
          31.27794243249237
        ],
        [
          121.56015765496082,
          31.278361897956195
        ],
        [
          121.56049352237937,
          31.27881192539342
        ],
        [
          121.56077572402613,
          31.279288111339913
        ],
        [
          121.56100149772081,
          31.27978579630535
        ],
        [
          121.56116863332109,
          31.280300110355906
        ],
        [
          121.56127549438054,
          31.2808260207586
        ],
        [
          121.56132103419745,
          31.281358381221477
        ],
        [
          121.56130480609615,
          31.2818919822482
        ],
        [
          121.56122696783814,
          31.282421602114482
        ],
        [
          121.56108828011931,
          31.28294205796758
        ],
        [
          121.56089009916519,
          31.283448256548848
        ],
        [
          121.55046230562635,
          31.30625873104208
        ],
        [
          121.55020927358771,
          31.30674096685268
        ],
        [
          121.54990223955477,
          31.307199740727082
        ],
        [
          121.54954414818174,
          31.307630651585196
        ],
        [
          121.54913843406139,
          31.30802956558228
        ],
        [
          121.54868898879208,
          31.308392655777663
        ],
        [
          121.54820012365384,
          31.308716438860515
        ],
        [
          121.54767652825099,
          31.308997808579367
        ],
        [
          121.54712322551835,
          31.309234065554424
        ],
        [
          121.54654552352274,
          31.309422943185822
        ],
        [
          121.54594896452306,
          31.309562629408845
        ],
        [
          121.54533927177823,
          31.309651784086956
        ],
        [
          121.54472229461435,
          31.30968955187526
        ],
        [
          121.54410395227956,
          31.309675570430826
        ],
        [
          121.54349017712616,
          31.309609973890723
        ],
        [
          121.54288685766683,
          31.309493391584503
        ],
        [
          121.54229978205245,
          31.309326941993408
        ],
        [
          121.42874063441765,
          31.27169693428413
        ],
        [
          121.42815892164334,
          31.27147433895941
        ],
        [
          121.42760643516878,
          31.27120274409075
        ],
        [
          121.4270888066061,
          31.270884918238533
        ],
        [
          121.42661131208456,
          31.270524101198145
        ],
        [
          121.426178818461,
          31.27012397096105
        ],
        [
          121.42579573371017,
          31.269688606208838
        ],
        [
          121.42546596200147,
          31.26922244472317
        ],
        [
          121.42519286391934,
          31.268730238136538
        ],
        [
          121.42497922223255,
          31.268217003485603
        ],
        [
          121.42482721356023,
          31.267687972061577
        ],
        [
          121.4247383862223,
          31.267148536079702
        ],
        [
          121.42471364449864,
          31.266604193711768
        ]
      ]
    ]
  }
}