{
  "type": "Feature",
  "properties": {
    "name": "Pudong",
    "color": "#ff8c00"
  },
  "geometry": {
    "type": "Polygon",
    "coordinates": [
      [
        [
          121.490078,
          31.240765
        ],
        [
          121.490421,
          31.238343
        ],
        [
          121.499176,
          31.230197
        ],
        [
          121.502953,
          31.225867
        ],
        [
          121.506472,
          31.216802
        ],
        [
          121.502008,
          31.207369
        ],
        [
          121.558485,
          31.267767
        ],
        [
          121.533337,
          31.250378
        ],
        [
          121.525612,
          31.247663
        ],
        [
          121.502609,
          31.246636
        ],
        [
          121.492224,
          31.24348
        ],
        [
          121.490078,
          31.240765
        ]
      ]
    ]
  }
}