{
  "type": "Feature",
  "properties": {
    "name": "Nanshi ( Stateowned Heavy Industries )",
    "color": "#d2691e"
  },
  "geometry": {
    "type": "Polygon",
    "coordinates": [
      [
        [
          121.433473,
          31.195366
        ],
        [
          121.445918,
          31.169335
        ],
        [
          121.459394,
          31.172786
        ],
        [
          121.462955,
          31.187142
        ],
        [
          121.482739,
          31.192135
        ],
        [
          121.493168,
          31.197789
        ],
        [
          121.50321,
          31.215921
        ],
        [
          121.502695,
          31.221353
        ],
        [
          121.496515,
          31.227995
        ],
        [
          121.4963034285473,
          31.227940361158815
        ],
        [
          121.4961999,
          31.2278548
        ],
        [
          121.4953047,
          31.2275239
        ],
        [
          121.4941061,
          31.227219
        ],
        [
          121.4930516,
          31.2270698
        ],
        [
          121.4934673,
          31.2264216
        ],
        [
          121.4942316,
          31.2249615
        ],
        [
          121.4946707,
          31.2239046
        ],
        [
          121.4947503,
          31.2230417
        ],
        [
          121.4946902,
          31.2227054
        ],
        [
          121.4944268,
          31.2220412
        ],
        [
          121.4942316,
          31.2209843
        ],
        [
          121.4942967,
          31.2195797
        ],
        [
          121.4939714,
          31.2183419
        ],
        [
          121.493323,
          31.2171114
        ],
        [
          121.49257222671983,
          31.216927407675
        ],
        [
          121.492417,
          31.216655
        ],
        [
          121.48879894124528,
          31.21705391639885
        ],
        [
          121.4882798,
          31.2170208
        ],
        [
          121.4859381,
          31.2164784
        ],
        [
          121.484881,
          31.2164505
        ],
        [
          121.48476598257679,
          31.2165168987123
        ],
        [
          121.484714,
          31.216508
        ],
        [
          121.48447080515263,
          31.216687302467815
        ],
        [
          121.4835801,
          31.2172015
        ],
        [
          121.48235641865027,
          31.218246195355068
        ],
        [
          121.48098,
          31.219261
        ],
        [
          121.4786474232782,
          31.223393242656964
        ],
        [
          121.4781611,
          31.2231988
        ],
        [
          121.4772832,
          31.2228793
        ],
        [
          121.4784202,
          31.2208791
        ],
        [
          121.479064,
          31.2197598
        ],
        [
          121.4790302,
          31.2192654
        ],
        [
          121.4785275,
          31.2189707
        ],
        [
          121.47756240933022,
          31.21865661865075
        ],
        [
          121.476517,
          31.21816
        ],
        [
          121.47671228821983,
          31.21550624375321
        ],
        [
          121.4774556,
          31.2132984
        ],
        [
          121.4765973,
          31.2130598
        ],
        [
          121.474655,
          31.2120549
        ],
        [
          121.4720335,
          31.2112044
        ],
        [
          121.4686861,
          31.2105254
        ],
        [
          121.46764933909918,
          31.21013414496916
        ],
        [
          121.46763368172621,
          31.20992574625057
        ],
        [
          121.4683351,
          31.2080148
        ],
        [
          121.4664254,
          31.2077212
        ],
        [
          121.46509002022393,
          31.207454900575595
        ],
        [
          121.46190496900198,
          31.20645506383908
        ],
        [
          121.4597129,
          31.2054507
        ],
        [
          121.45709438382738,
          31.204944946906405
        ],
        [
          121.44553574598872,
          31.201316512093328
        ],
        [
          121.44342557282941,
          31.20042779884882
        ],
        [
          121.4373762007976,
          31.19735113667196
        ],
        [
          121.435337,
          31.1961085
        ],
        [
          121.4339522,
          31.1956019
        ],
        [
          121.43395033065002,
          31.195608766546513
        ],
        [
          121.433473,
          31.195366
        ]
      ]
    ]
  }
}