{
  "type": "Feature",
  "properties": {
    "name": "Nanshi ( Stateowned Heavy Industries )",
    "color": "#d2691e"
  },
  "geometry": {
    "type": "Polygon",
    "coordinates": [
      [
        [
          121.42716600979857,
          31.19546381967418
        ],
        [
          121.42718696223238,
          31.194916034729765
        ],
        [
          121.42727276681174,
          31.194372893624294
        ],
        [
          121.4274225372055,
          31.19383999981806
        ],
        [
          121.42763472722984,
          31.193322850958932
        ],
        [
          121.44008106358501,
          31.167292413118698
        ],
        [
          121.44034333183004,
          31.1668124490996
        ],
        [
          121.44065934491165,
          31.166356807193196
        ],
        [
          121.44102605544907,
          31.16592988016735
        ],
        [
          121.44143992743673,
          31.165535783897184
        ],
        [
          121.44189697034903,
          31.16517831769712
        ],
        [
          121.44239277761969,
          31.164860927705845
        ],
        [
          121.44292256912492,
          31.164586673676354
        ],
        [
          121.44348123726085,
          31.16435819949088
        ],
        [
          121.44406339617113,
          31.164177707684306
        ],
        [
          121.44466343365102,
          31.16404693822095
        ],
        [
          121.4452755652285,
          31.16396715172924
        ],
        [
          121.44589388990182,
          31.163939117355024
        ],
        [
          121.44651244699783,
          31.163963105350746
        ],
        [
          121.44712527360389,
          31.164038884471516
        ],
        [
          121.44772646202144,
          31.16416572420317
        ],
        [
          121.46120179234674,
          31.167616535698297
        ],
        [
          121.46178050069156,
          31.167791368761385
        ],
        [
          121.46233660941209,
          31.168013505037237
        ],
        [
          121.46286485208844,
          31.16828084093806
        ],
        [
          121.46336022606874,
          31.168590844824678
        ],
        [
          121.46381803983269,
          31.16894058097044
        ],
        [
          121.46423395741479,
          31.169326737350932
        ],
        [
          121.46460403946723,
          31.169745656997286
        ],
        [
          121.46492478057364,
          31.17019337261621
        ],
        [
          121.46519314245984,
          31.17066564415002
        ],
        [
          121.46540658278728,
          31.171157998921075
        ],
        [
          121.46556307925519,
          31.17166577398108
        ],
        [
          121.46834456544877,
          31.182876637013837
        ],
        [
          121.48452322645895,
          31.186959453062258
        ],
        [
          121.48507567548398,
          31.187122988054256
        ],
        [
          121.48560805584262,
          31.187329573712052
        ],
        [
          121.48611579499594,
          31.18757743575753
        ],
        [
          121.4965444943354,
          31.1932311634731
        ],
        [
          121.49702938938078,
          31.193522167255377
        ],
        [
          121.49748024060739,
          31.19385079332214
        ],
        [
          121.4978930727047,
          31.194214144336875
        ],
        [
          121.49826424543535,
          31.194609016774997
        ],
        [
          121.49859048573438,
          31.195031929158187
        ],
        [
          121.49886891657665,
          31.195479152739637
        ],
        [
          121.50891176390697,
          31.213610709770094
        ],
        [
          121.50916279813889,
          31.21413279574624
        ],
        [
          121.50934868410354,
          31.214674454311627
        ],
        [
          121.50946738628845,
          31.21522975742737
        ],
        [
          121.50947887725074,
          31.215358554051925
        ],
        [
          121.502008,
          31.207369
        ],
        [
          121.506472,
          31.216802
        ],
        [
          121.502953,
          31.225867
        ],
        [
          121.499176,
          31.230197
        ],
        [
          121.49578685762268,
          31.233350392781922
        ],
        [
          121.4952987274011,
          31.23328974589974
        ],
        [
          121.4946906616292,
          31.233160507639294
        ],
        [
          121.49128503507958,
          31.232280991983085
        ],
        [
          121.4913885,
          31.2322024
        ],
        [
          121.4914843,
          31.2321139
        ],
        [
          121.4914802,
          31.2320919
        ],
        [
          121.4915149,
          31.2320648
        ],
        [
          121.4916493,
          31.2319743
        ],
        [
          121.4917826,
          31.232115
        ],
        [
          121.493777,
          31.2306107
        ],
        [
          121.4951897,
          31.2294685
        ],
        [
          121.4966551,
          31.228231
        ],
        [
          121.4961999,
          31.2278548
        ],
        [
          121.4953047,
          31.2275239
        ],
        [
          121.4941061,
          31.227219
        ],
        [
          121.4930516,
          31.2270698
        ],
        [
          121.4934673,
          31.2264216
        ],
        [
          121.4942316,
          31.2249615
        ],
        [
          121.4946707,
          31.2239046
        ],
        [
          121.4947503,
          31.2230417
        ],
        [
          121.4946902,
          31.2227054
        ],
        [
          121.4944268,
          31.2220412
        ],
        [
          121.4942316,
          31.2209843
        ],
        [
          121.4942967,
          31.2195797
        ],
        [
          121.4939714,
          31.2183419
        ],
        [
          121.493323,
          31.2171114
        ],
        [
          121.492329,
          31.2168678
        ],
        [
          121.4909467,
          31.216979
        ],
        [
          121.4893693,
          31.2170903
        ],
        [
          121.4882798,
          31.2170208
        ],
        [
          121.4859381,
          31.2164784
        ],
        [
          121.484881,
          31.2164505
        ],
        [
          121.4835801,
          31.2172015
        ],
        [
          121.4820097,
          31.2185422
        ],
        [
          121.4815921,
          31.219202
        ],
        [
          121.4804312,
          31.2210967
        ],
        [
          121.4791713,
          31.2236027
        ],
        [
          121.4781611,
          31.2231988
        ],
        [
          121.4772832,
          31.2228793
        ],
        [
          121.4784202,
          31.2208791
        ],
        [
          121.479064,
          31.2197598
        ],
        [
          121.4790302,
          31.2192654
        ],
        [
          121.4785275,
          31.2189707
        ],
        [
          121.4761028,
          31.2181816
        ],
        [
          121.4766077,
          31.2158169
        ],
        [
          121.4774556,
          31.2132984
        ],
        [
          121.4765973,
          31.2130598
        ],
        [
          121.474655,
          31.2120549
        ],
        [
          121.4720335,
          31.2112044
        ],
        [
          121.4686861,
          31.2105254
        ],
        [
          121.4675684,
          31.2101036
        ],
        [
          121.4683351,
          31.2080148
        ],
        [
          121.4664254,
          31.2077212
        ],
        [
          121.4648433,
          31.2074057
        ],
        [
          121.4629101,
          31.2070841
        ],
        [
          121.4621161,
          31.2065518
        ],
        [
          121.4597129,
          31.2054507
        ],
        [
          121.4563869,
          31.2048083
        ],
        [
          121.4542412,
          31.204221
        ],
        [
          121.4514087,
          31.2033951
        ],
        [
          121.4458083,
          31.2014313
        ],
        [
          121.4401864,
          31.1990636
        ],
        [
          121.435337,
          31.1961085
        ],
        [
          121.4339522,
          31.1956019
        ],
        [
          121.43386749788856,
          31.195913030068887
        ],
        [
          121.43366203394008,
          31.19586195727298
        ],
        [
          121.43333701589239,
          31.19680099252706
        ],
        [
          121.43305501710229,
          31.197760032896543
        ],
        [
          121.43277701176838,
          31.198612961115128
        ],
        [
          121.43198302754188,
          31.200316996942043
        ],
        [
          121.43181624429143,
          31.200801067178176
        ],
        [
          121.43024875328136,
          31.200003839962047
        ],
        [
          121.42971537008486,
          31.19970013480882
        ],
        [
          121.42922075967691,
          31.19935171289262
        ],
        [
          121.42877002517002,
          31.19896216935603
        ],
        [
          121.42836781678133,
          31.198535523602327
        ],
        [
          121.42801828385703,
          31.198076177807504
        ],
        [
          121.42772503207314,
          31.197588871483596
        ],
        [
          121.42749108625472,
          31.197078632563077
        ],
        [
          121.42731885919564,
          31.196550725509468
        ],
        [
          121.42721012679975,
          31.196010596990405
        ],
        [
          121.42716600979857,
          31.19546381967418
        ]
      ]
    ]
  }
}