{
  "type": "Feature",
  "properties": {
    "name": "Siccawei",
    "color": "#1e90ff"
  },
  "geometry": {
    "type": "Polygon",
    "coordinates": [
      [
        [
          121.40257543977332,
          31.20972130640012
        ],
        [
          121.40258776405214,
          31.209203581320924
        ],
        [
          121.40265805588821,
          31.208689250670556
        ],
        [
          121.40278566698778,
          31.208183051203257
        ],
        [
          121.4029694212209,
          31.207689644713486
        ],
        [
          121.41558798208244,
          31.17868822174881
        ],
        [
          121.41583836402405,
          31.178190565819254
        ],
        [
          121.41614581277068,
          31.177716900222617
        ],
        [
          121.41650722801917,
          31.177272000107777
        ],
        [
          121.41691896556648,
          31.17686035056611
        ],
        [
          121.41737687406598,
          31.17648610142984
        ],
        [
          121.41787633688848,
          31.176153025451484
        ],
        [
          121.41841231866559,
          31.175864480285334
        ],
        [
          121.41897941604608,
          31.175623374653313
        ],
        [
          121.41957191215411,
          31.17543213903585
        ],
        [
          121.42018383420096,
          31.17529270118237
        ],
        [
          121.42080901367038,
          31.175206466688007
        ],
        [
          121.42144114847234,
          31.175174304831415
        ],
        [
          121.4220738664399,
          31.17519653981657
        ],
        [
          121.42270078953045,
          31.17527294750626
        ],
        [
          121.4233155980865,
          31.175402757680427
        ],
        [
          121.42391209450886,
          31.175584661796297
        ],
        [
          121.43434853769439,
          31.179281496058863
        ],
        [
          121.42763472722984,
          31.193322850958932
        ],
        [
          121.4274225372055,
          31.19383999981806
        ],
        [
          121.42727276681174,
          31.194372893624294
        ],
        [
          121.42718696223238,
          31.194916034729765
        ],
        [
          121.42716600979857,
          31.19546381967418
        ],
        [
          121.42721012679975,
          31.196010596990405
        ],
        [
          121.42731885919564,
          31.196550725509468
        ],
        [
          121.42749108625472,
          31.197078632563077
        ],
        [
          121.42772503207314,
          31.197588871483596
        ],
        [
          121.42801828385703,
          31.198076177807504
        ],
        [
          121.42836781678133,
          31.198535523602327
        ],
        [
          121.42877002517002,
          31.19896216935603
        ],
        [
          121.42922075967691,
          31.19935171289262
        ],
        [
          121.42971537008486,
          31.19970013480882
        ],
        [
          121.43024875328136,
          31.200003839962047
        ],
        [
          121.43181624429143,
          31.200801067178176
        ],
        [
          121.43175597505069,
          31.200975992091262
        ],
        [
          121.43163603346723,
          31.201410984843047
        ],
        [
          121.43153399309075,
          31.201789011893787
        ],
        [
          121.43144201009906,
          31.202255011668537
        ],
        [
          121.4314229998423,
          31.20248396605808
        ],
        [
          121.43134898837413,
          31.202893993189452
        ],
        [
          121.43114601357263,
          31.203351964601033
        ],
        [
          121.43025900558949,
          31.20424399744952
        ],
        [
          121.42965904016548,
          31.205230986320117
        ],
        [
          121.42939997403252,
          31.205782974686123
        ],
        [
          121.42892898774961,
          31.206872011834477
        ],
        [
          121.4287180156938,
          31.20742503693014
        ],
        [
          121.42850498072787,
          31.207977044231964
        ],
        [
          121.42812698811346,
          31.20979995899643
        ],
        [
          121.42807097349026,
          31.210297963173566
        ],
        [
          121.42805299677356,
          31.2108979918743
        ],
        [
          121.42810801975543,
          31.211276040657438
        ],
        [
          121.42859803795369,
          31.2120420125948
        ],
        [
          121.42909600738898,
          31.212516028141806
        ],
        [
          121.4294839609791,
          31.212838974542716
        ],
        [
          121.4298530026514,
          31.21295000100612
        ],
        [
          121.43028698195808,
          31.213043960395765
        ],
        [
          121.4315710150763,
          31.213100033471196
        ],
        [
          121.43201402577844,
          31.213250018209962
        ],
        [
          121.4326230087397,
          31.213439004314914
        ],
        [
          121.43357402933218,
          31.214212018774624
        ],
        [
          121.4342949722667,
          31.21523901119127
        ],
        [
          121.43449196028529,
          31.216269002823807
        ],
        [
          121.4345130140085,
          31.216378034477792
        ],
        [
          121.43454197818127,
          31.216527028681185
        ],
        [
          121.43472601903731,
          31.217387024803227
        ],
        [
          121.4349669666301,
          31.2180189783114
        ],
        [
          121.43526199113322,
          31.218437015140378
        ],
        [
          121.43591796795904,
          31.218776011507355
        ],
        [
          121.43693298743581,
          31.218925990814807
        ],
        [
          121.43886296192363,
          31.219052979146408
        ],
        [
          121.43948198729441,
          31.21918703648789
        ],
        [
          121.44091201567015,
          31.219898975740403
        ],
        [
          121.4416420360015,
          31.22039596127596
        ],
        [
          121.44140201133303,
          31.220902024026117
        ],
        [
          121.44118997356328,
          31.221422044986685
        ],
        [
          121.44098099421275,
          31.222071983698886
        ],
        [
          121.4407879690772,
          31.222719523697542
        ],
        [
          121.4407425,
          31.2227265
        ],
        [
          121.4404206,
          31.2228733
        ],
        [
          121.4401202,
          31.223222
        ],
        [
          121.4399056,
          31.2237725
        ],
        [
          121.4399056,
          31.2241028
        ],
        [
          121.4401202,
          31.224323
        ],
        [
          121.4397125,
          31.2245431
        ],
        [
          121.4391117,
          31.2249835
        ],
        [
          121.4385324,
          31.2256808
        ],
        [
          121.4379959,
          31.2265616
        ],
        [
          121.4376997092617,
          31.22727531866956
        ],
        [
          121.43276555991143,
          31.22583588567289
        ],
        [
          121.43209720778819,
          31.225603625762083
        ],
        [
          121.43146422993539,
          31.2253076441656
        ],
        [
          121.4308749012034,
          31.22495181039115
        ],
        [
          121.42143374639659,
          31.218528523582705
        ],
        [
          121.42093876925937,
          31.218153884672407
        ],
        [
          121.42049234183904,
          31.217737015336528
        ],
        [
          121.42009936345245,
          31.217282491134366
        ],
        [
          121.41988750414325,
          31.216974584305607
        ],
        [
          121.40763449860536,
          31.21486138895735
        ],
        [
          121.40704739387064,
          31.2147347553319
        ],
        [
          121.40647718812819,
          31.214560571637197
        ],
        [
          121.40592913355627,
          31.214340442316193
        ],
        [
          121.40540827819807,
          31.214076395014107
        ],
        [
          121.40491941944865,
          31.213770861892783
        ],
        [
          121.40446705985515,
          31.21342665721803
        ],
        [
          121.40405536563917,
          31.21304695142679
        ],
        [
          121.4036881283228,
          31.21263524191339
        ],
        [
          121.40336872981229,
          31.212195320804557
        ],
        [
          121.40310011126107,
          31.211731240020566
        ],
        [
          121.40288474599778,
          31.21124727394473
        ],
        [
          121.402724616769,
          31.21074788004561
        ],
        [
          121.40262119750457,
          31.21023765781498
        ],
        [
          121.40257543977332,
          31.20972130640012
        ]
      ]
    ]
  }
}