{"type":"FeatureCollection", "features": [
{"type":"Feature","geometry":{"type":"Polygon","coordinates":[[[121.48903597764976,31.23140799796333],[121.48939501322003,31.23137902478554],[121.4899730063927,31.231179987175203],[121.49026896377589,31.231001988339646],[121.49055701506195,31.23049900971263],[121.49077698275859,31.230031039015024],[121.49102498387592,31.22985797733012],[121.49175801021678,31.229380962478245],[121.49197601640536,31.228916033137626],[121.49215498750877,31.22850503385022],[121.49221201072548,31.22829401223524],[121.49223598396726,31.22816901092601],[121.4923589660211,31.227712978182865],[121.49250602152496,31.227359960938003],[121.49263904095893,31.227083986852147],[121.49351801018777,31.227233009964447],[121.49528097863491,31.22768397974185],[121.49598900532335,31.228045021119364],[121.49630401766288,31.228193019512528],[121.49468802091124,31.22943496267989],[121.49123399235725,31.232073030316176],[121.49117397032997,31.23205302396909],[121.49048501871798,31.231929034842295],[121.48903597764976,31.23140799796333]]]},"properties":{"FeatId":4,"TERRITORY":"FRENCH CONCESSION","COMMENT":"1861-1900","START":1861,"END":1900}}
]}