{"type":"FeatureCollection", "features": [
{"type":"Feature","geometry":{"type":"Polygon","coordinates":[[[121.44074996196855,31.222847025864628],[121.44098099421275,31.222071983698886],[121.44118997356328,31.221422044986685],[121.44140201133303,31.220902024026117],[121.4416420360015,31.22039596127596],[121.44091201567015,31.219898975740403],[121.43948198729441,31.21918703648789],[121.43886296192363,31.219052979146408],[121.43693298743581,31.218925990814807],[121.43591796795904,31.218776011507355],[121.43526199113322,31.218437015140378],[121.4349669666301,31.2180189783114],[121.43472601903731,31.217387024803227],[121.43454197818127,31.216527028681185],[121.4345130140085,31.216378034477792],[121.43449196028529,31.216269002823807],[121.4342949722667,31.21523901119127],[121.43357402933218,31.214212018774624],[121.4326230087397,31.213439004314914],[121.43201402577844,31.213250018209962],[121.4315710150763,31.213100033471196],[121.43028698195808,31.213043960395765],[121.4298530026514,31.21295000100612],[121.4294839609791,31.212838974542716],[121.42909600738898,31.212516028141806],[121.42859803795369,31.2120420125948],[121.42810801975543,31.211276040657438],[121.42805299677356,31.2108979918743],[121.42807097349026,31.210297963173566],[121.42812698811346,31.20979995899643],[121.42850498072787,31.207977044231964],[121.4287180156938,31.20742503693014],[121.42892898774961,31.206872011834477],[121.42939997403252,31.205782974686123],[121.42965904016548,31.205230986320117],[121.43025900558949,31.20424399744952],[121.43114601357263,31.203351964601033],[121.43134898837413,31.202893993189452],[121.4314229998423,31.20248396605808],[121.43144201009906,31.202255011668537],[121.43153399309075,31.201789011893787],[121.43163603346723,31.201410984843047],[121.43175597505069,31.200975992091262],[121.43198302754188,31.200316996942043],[121.43277701176838,31.198612961115128],[121.43305501710229,31.197760032896543],[121.43333701589239,31.19680099252706],[121.43366203394008,31.19586195727298],[121.43451896289407,31.19607496669822],[121.43535196407709,31.19653797180238],[121.4359950185716,31.196896020120747],[121.43653104315868,31.19722696868763],[121.43829396403467,31.19822997924228],[121.4397270309723,31.199117033328957],[121.44046802612527,31.19952603564373],[121.44092000211823,31.199881021804146],[121.44119702919869,31.2000070448865],[121.44155697393195,31.200522994974197],[121.44275000705926,31.20088902510012],[121.44426001451201,31.201267987972084],[121.44545403883917,31.201654028778773],[121.44838998268379,31.202682980475647],[121.45132596624308,31.203755972441005],[121.45367099134987,31.20435602506746],[121.45478298496593,31.20476201008076],[121.45597402400699,31.20503896246684],[121.45727603693689,31.205299015442257],[121.45800598179751,31.20537803061464],[121.45940900686614,31.205621955492994],[121.46042400304992,31.20613595776638],[121.46151403777128,31.20670397511268],[121.46258398756326,31.2072250219251],[121.4648690203225,31.207552035138164],[121.4663489789183,31.207922987468276],[121.46784301878016,31.20824800059637],[121.4675620281301,31.20934603537791],[121.46711697805245,31.210365988711832],[121.46842596308909,31.210677966612103],[121.4700780318015,31.21100700111636],[121.47145402344104,31.211260035859315],[121.47166099789116,31.21131201310567],[121.47344601729277,31.211765972664338],[121.4743680129285,31.212049034168295],[121.47503103610053,31.212349042269278],[121.47559601691212,31.21277199470721],[121.47611598987505,31.213054968402453],[121.47703195749308,31.213305018182233],[121.4767509641038,31.214289968292505],[121.47638501357336,31.215558028448413],[121.47627903070243,31.215921976371856],[121.47573001014354,31.21832198882723],[121.47635996435024,31.218555034200303],[121.47699402394774,31.21878596045857],[121.47785798276126,31.219054961888276],[121.47805599105145,31.21918700729737],[121.4783299932441,31.21936802612484],[121.4785030408562,31.219620998909797],[121.47856000633259,31.21997704507192],[121.47852398358792,31.22011299519345],[121.47840897168317,31.220548994646446],[121.47797097823367,31.221170041844605],[121.47706396216266,31.22267802210658],[121.47621402849275,31.222433984921693],[121.47540102132974,31.222063023414467],[121.47408104282732,31.22158899113199],[121.47315703150475,31.22110801241914],[121.47236296665662,31.222299990146396],[121.47222500948733,31.222686012797695],[121.47207698462408,31.223191966257044],[121.47196596224065,31.223776017784438],[121.47167097373163,31.223791002112716],[121.471214983334,31.22381101674378],[121.47036897510685,31.223672967739052],[121.46984203784635,31.22357803587133],[121.46918696279597,31.223286032053714],[121.46852197577998,31.2228359741615],[121.4679219637509,31.222560043309848],[121.4674689839545,31.222426026314896],[121.46707997839616,31.222281044962322],[121.46698597379314,31.222667044332145],[121.46684597152378,31.223172996640635],[121.46661801348661,31.22400098087613],[121.46633996129736,31.223856959502825],[121.46588199975116,31.22459903826789],[121.46554203506565,31.225548981227526],[121.46460096995587,31.22574303258071],[121.4643190287729,31.225834010196465],[121.46371298795059,31.225924993627356],[121.4632659745424,31.22585498164145],[121.46262496357316,31.22578003304921],[121.46215798417848,31.225750997895005],[121.46046903145098,31.22579302158866],[121.45940496804751,31.22589500553865],[121.4583730243824,31.225921962290826],[121.45683103009412,31.22584303410532],[121.45600203996003,31.22581396076305],[121.45411797266479,31.225892973185886],[121.45183100810367,31.225914974505752],[121.45118700987922,31.22590703840957],[121.45044702253281,31.225856001489294],[121.44953302065522,31.225625989048268],[121.44894101550277,31.225439991736117],[121.44665998777528,31.2245230398702],[121.44476703790662,31.223834968133136],[121.4444159751852,31.22366900142771],[121.44370498643684,31.223408031787862],[121.4430399703794,31.223225994610765],[121.4422460180648,31.22306800755056],[121.44145201877328,31.222949971545283],[121.44074996196855,31.222847025864628]]]},"properties":{"FeatId":9,"TERRITORY":"FRENCH CONCESSION","COMMENT":"1914-1943","START":1914,"END":1943}}
]}