{"type":"FeatureCollection", "features": [
{"type":"Feature","geometry":{"type":"Polygon","coordinates":[[[121.46554203506565,31.225548981227526],[121.46588199975116,31.22459903826789],[121.46633996129736,31.223856959502825],[121.46661801348661,31.22400098087613],[121.46684597152378,31.223172996640635],[121.46698597379314,31.222667044332145],[121.46707997839616,31.222281044962322],[121.4674689839545,31.222426026314896],[121.4679219637509,31.222560043309848],[121.46852197577998,31.2228359741615],[121.46918696279597,31.223286032053714],[121.46984203784635,31.22357803587133],[121.47036897510685,31.223672967739052],[121.471214983334,31.22381101674378],[121.47167097373163,31.223791002112716],[121.47196596224065,31.223776017784438],[121.47207698462408,31.223191966257044],[121.47222500948733,31.222686012797695],[121.47236296665662,31.222299990146396],[121.47315703150475,31.22110801241914],[121.47408104282732,31.22158899113199],[121.47540102132974,31.222063023414467],[121.47621402849275,31.222433984921693],[121.47706396216266,31.22267802210658],[121.47703600006442,31.223002035444143],[121.47670401867713,31.223806979934423],[121.47653901571866,31.2241099774175],[121.47653900365489,31.22448302746012],[121.476334964729,31.22561103471736],[121.47585197619915,31.2267570212702],[121.4755000399441,31.22767104252712],[121.47497797232477,31.228597025090757],[121.47435199203228,31.229535030983683],[121.47367103636304,31.23049402779139],[121.47245804248521,31.22982597343945],[121.47125004064127,31.2291500300539],[121.47038997528672,31.22863497550702],[121.46955601763155,31.22831604098326],[121.46828795618079,31.22784004090378],[121.46775397069773,31.227611977516343],[121.46821198798433,31.2265660237779],[121.46846401018252,31.226006024354664],[121.46791100141421,31.225847005469898],[121.46706096437059,31.22563600833124],[121.46606602653556,31.22547297491384],[121.46554203506565,31.225548981227526]]]},"properties":{"FeatId":8,"TERRITORY":"FRENCH CONCESSION","COMMENT":"1900-1914","START":1900,"END":1914}}
]}