{"type": "FeatureCollection", "features": [{"type": "Feature", "geometry": {"type": "MultiPolygon", "coordinates": [[[[121.49117397032997, 31.23205302396909], [121.49048501871798, 31.231929034842295], [121.48903597764976, 31.23140799796333], [121.48747297417869, 31.231525996049644], [121.48659502259315, 31.231533974250453], [121.48584802878821, 31.23153798685864], [121.48516602448011, 31.231511011890902], [121.4847030394119, 31.23146803448315], [121.48437802609138, 31.231420999621392], [121.48393728170733, 31.231342563886514], [121.48138678393421, 31.23053911306328], [121.48153996414084, 31.23063798397157], [121.48130295995917, 31.230485008471497], [121.48111896569701, 31.230405988059147], [121.48104804061836, 31.230394495097794], [121.4799537, 31.2297868], [121.4791569, 31.228883], [121.4784576, 31.2278122], [121.4782865, 31.2270892], [121.478421, 31.2259271], [121.4791713, 31.2236027], [121.4781611, 31.2231988], [121.4772832, 31.2228793], [121.4784202, 31.2208791], [121.479064, 31.2197598], [121.4790302, 31.2192654], [121.4785275, 31.2189707], [121.4761028, 31.2181816], [121.4766077, 31.2158169], [121.4774556, 31.2132984], [121.4765973, 31.2130598], [121.474655, 31.2120549], [121.4720335, 31.2112044], [121.4686861, 31.2105254], [121.4675684, 31.2101036], [121.4683351, 31.2080148], [121.4664254, 31.2077212], [121.4648433, 31.2074057], [121.4629101, 31.2070841], [121.4621161, 31.2065518], [121.4597129, 31.2054507], [121.4563869, 31.2048083], [121.4542412, 31.204221], [121.4514087, 31.2033951], [121.4458083, 31.2014313], [121.4401864, 31.1990636], [121.435337, 31.1961085], [121.4339522, 31.1956019], [121.43386749788856, 31.195913030068887], [121.43451896289407, 31.19607496669822], [121.43535196407709, 31.19653797180238], [121.4359950185716, 31.196896020120747], [121.43653104315868, 31.19722696868763], [121.43829396403467, 31.19822997924228], [121.4397270309723, 31.199117033328957], [121.44046802612527, 31.19952603564373], [121.44092000211823, 31.199881021804146], [121.44119702919869, 31.2000070448865], [121.44155697393195, 31.200522994974197], [121.44275000705926, 31.20088902510012], [121.44426001451201, 31.201267987972084], [121.44545403883917, 31.201654028778773], [121.44838998268379, 31.202682980475647], [121.45132596624308, 31.203755972441005], [121.45367099134987, 31.20435602506746], [121.45478298496593, 31.20476201008076], [121.45597402400699, 31.20503896246684], [121.45727603693689, 31.205299015442257], [121.45800598179751, 31.20537803061464], [121.45940900686614, 31.205621955492994], [121.46042400304992, 31.20613595776638], [121.46151403777128, 31.20670397511268], [121.46258398756326, 31.2072250219251], [121.4648690203225, 31.207552035138164], [121.4663489789183, 31.207922987468276], [121.46784301878016, 31.20824800059637], [121.4675620281301, 31.20934603537791], [121.46711697805245, 31.210365988711832], [121.46842596308909, 31.210677966612103], [121.4700780318015, 31.21100700111636], [121.47145402344104, 31.211260035859315], [121.47166099789116, 31.21131201310567], [121.47344601729277, 31.211765972664338], [121.4743680129285, 31.212049034168295], [121.47503103610053, 31.212349042269278], [121.47559601691212, 31.21277199470721], [121.47611598987505, 31.213054968402453], [121.47703195749308, 31.213305018182233], [121.4767509641038, 31.214289968292505], [121.47638501357336, 31.215558028448413], [121.47627903070243, 31.215921976371856], [121.47573001014354, 31.21832198882723], [121.47635996435024, 31.218555034200303], [121.47699402394774, 31.21878596045857], [121.47785798276126, 31.219054961888276], [121.47805599105145, 31.21918700729737], [121.4783299932441, 31.21936802612484], [121.4785030408562, 31.219620998909797], [121.47856000633259, 31.21997704507192], [121.47852398358792, 31.22011299519345], [121.47840897168317, 31.220548994646446], [121.47797097823367, 31.221170041844605], [121.47706396216266, 31.22267802210658], [121.47703600006442, 31.223002035444143], [121.47670401867713, 31.223806979934423], [121.47653901571866, 31.2241099774175], [121.47653900365489, 31.22448302746012], [121.476334964729, 31.22561103471736], [121.47585197619915, 31.2267570212702], [121.4755000399441, 31.22767104252712], [121.47497797232477, 31.228597025090757], [121.47435199203228, 31.229535030983683], [121.47367103636304, 31.23049402779139], [121.47391603913007, 31.230671013934995], [121.47464900354035, 31.231114004532884], [121.47537696406648, 31.23152401026651], [121.47595502190138, 31.231835004054744], [121.47683796219012, 31.232249995616165], [121.47747898922923, 31.23256497575747], [121.47796103315724, 31.232726000590358], [121.4784979745336, 31.23285403030426], [121.47917195881966, 31.233046996467227], [121.47958702310915, 31.23313100747574], [121.47961801333132, 31.23313346727218], [121.4797153, 31.23316], [121.48010361238687, 31.233172010875407], [121.47984839591865, 31.23315175350016], [121.4802920335855, 31.23318696648917], [121.48118699313709, 31.23308001716971], [121.48155501368389, 31.23300399979343], [121.48178801342858, 31.23299096721339], [121.4821760266263, 31.23299103886838], [121.48244400006053, 31.23308097071253], [121.48315997031926, 31.233615983591935], [121.48353395880795, 31.23376795601418], [121.48403498607698, 31.233933962663023], [121.48458802773968, 31.234036000239893], [121.48495603064758, 31.234188980389522], [121.48519900412627, 31.23435401576954], [121.48538098231472, 31.23449497136746], [121.48596497404303, 31.234865971223208], [121.48668799987423, 31.235118013212755], [121.48705100233259, 31.235281030575404], [121.4873140128422, 31.235368007779932], [121.48737995812031, 31.23541297972263], [121.48737802079586, 31.235415031435004], [121.48741097046562, 31.235438960259508], [121.48771798370186, 31.235529972010376], [121.48788859970661, 31.235308958832967], [121.4880642, 31.2353754], [121.4884414, 31.234891], [121.4885488, 31.2347711], [121.4885161, 31.2347465], [121.4885681, 31.234696], [121.4885903, 31.2346736], [121.4886101, 31.2346537], [121.4886712, 31.2345934], [121.4886899, 31.234575], [121.4887084, 31.2345567], [121.4888105, 31.234456], [121.4888216, 31.234445], [121.4888787, 31.2343886], [121.4889203, 31.2343492], [121.4891249, 31.234138], [121.4890942, 31.234117], [121.4896666, 31.2335823], [121.4897858, 31.233467], [121.490688, 31.2327345], [121.4913885, 31.2322024], [121.4914843, 31.2321139], [121.4914802, 31.2320919], [121.4915149, 31.2320648], [121.4916493, 31.2319743], [121.4917826, 31.232115], [121.493777, 31.2306107], [121.4951897, 31.2294685], [121.4966551, 31.228231], [121.4961999, 31.2278548], [121.4953047, 31.2275239], [121.4941061, 31.227219], [121.4930516, 31.2270698], [121.49300370838073, 31.227145813674255], [121.49351801018777, 31.227233009964447], [121.49528097863491, 31.22768397974185], [121.49598900532335, 31.228045021119364], [121.49630401766288, 31.228193019512528], [121.49468802091124, 31.22943496267989], [121.49123399235725, 31.232073030316176], [121.49117397032997, 31.23205302396909]]], [[[121.48107640173723, 31.23309323304626], [121.48035270894658, 31.23317971567145], [121.4807046, 31.2331906], [121.48107640173723, 31.23309323304626]]], [[[121.46786360149915, 31.227361618523474], [121.46804236973368, 31.226953373444736], [121.4678134, 31.2273412], [121.46786360149915, 31.227361618523474]]], [[[121.46606602653556, 31.22547297491384], [121.46579824131413, 31.22551181785062], [121.46668489337632, 31.225574384240545], [121.46606602653556, 31.22547297491384]]]]}, "properties": {"FeatId": 3, "TERRITORY": "FRENCH CONCESSION", "COMMENT": "1849-1861", "START": 1849, "END": 1863}}]}