{"type": "FeatureCollection", "features": [{"type": "Feature", "id": "relation/2661233", "properties": {"admin_level": "6", "boundary": "administrative", "end_date": "1943", "name": "\u4e0a\u6d77\u6cd5\u79df\u754c La concession fran\u00e7aise de Changha\u00ef", "name:fr": "La concession fran\u00e7aise de Changha\u00ef", "name:zh": "\u4e0a\u6d77\u6cd5\u79df\u754c", "start_date:edtf": "/1943", "start_date:edtf:source": "script that set it to \"some time before the end_date\" when start_date was missing", "type": "boundary", "id": "relation/2661233"}, "geometry": {"type": "Polygon", "coordinates": [[[121.4791713, 31.2236027], [121.478421, 31.2259271], [121.4782865, 31.2270892], [121.4784576, 31.2278122], [121.4791569, 31.228883], [121.4799537, 31.2297868], [121.4812058, 31.2304821], [121.4839866, 31.2313581], [121.4852225, 31.2316084], [121.4871577, 31.2316223], [121.4894669, 31.231525], [121.4902149, 31.2312886], [121.4907353, 31.2308853], [121.4910943, 31.2302096], [121.4913522, 31.2298982], [121.4920046, 31.2294117], [121.4923005, 31.229029], [121.4925736, 31.2281662], [121.4928922, 31.2273228], [121.4930516, 31.2270698], [121.4941061, 31.227219], [121.4953047, 31.2275239], [121.4961999, 31.2278548], [121.4966551, 31.228231], [121.4951897, 31.2294685], [121.493777, 31.2306107], [121.4917826, 31.232115], [121.4916493, 31.2319743], [121.4915149, 31.2320648], [121.4914802, 31.2320919], [121.4914843, 31.2321139], [121.4913885, 31.2322024], [121.490688, 31.2327345], [121.4897858, 31.233467], [121.4896666, 31.2335823], [121.4890942, 31.234117], [121.4891249, 31.234138], [121.4889203, 31.2343492], [121.4888787, 31.2343886], [121.4888216, 31.234445], [121.4888105, 31.234456], [121.4887084, 31.2345567], [121.4886899, 31.234575], [121.4886712, 31.2345934], [121.4886101, 31.2346537], [121.4885903, 31.2346736], [121.4885681, 31.234696], [121.4885161, 31.2347465], [121.4885488, 31.2347711], [121.4884414, 31.234891], [121.4880642, 31.2353754], [121.4865453, 31.2348007], [121.4853419, 31.2341194], [121.4843012, 31.2337718], [121.483732, 31.233591], [121.4834068, 31.2332712], [121.4829026, 31.2329653], [121.4824473, 31.2328262], [121.481618, 31.2329514], [121.4807046, 31.2331906], [121.4797153, 31.23316], [121.4785933, 31.232854], [121.4762515, 31.2317277], [121.4748205, 31.2310325], [121.4738285, 31.2302121], [121.4732671, 31.2300211], [121.4723239, 31.22959], [121.471462, 31.2288252], [121.4678134, 31.2273412], [121.4686024, 31.2260048], [121.4673866, 31.2256239], [121.4657328, 31.2255072], [121.4640486, 31.2258315], [121.4633682, 31.2256866], [121.4619914, 31.2254847], [121.458433, 31.2258058], [121.4504043, 31.2257233], [121.4438597, 31.2231911], [121.4409641, 31.2226925], [121.441907, 31.2202184], [121.4406665, 31.2194751], [121.4393146, 31.2189246], [121.4365466, 31.2187594], [121.4356414, 31.2184017], [121.4352591, 31.2178786], [121.4349373, 31.2168326], [121.4346154, 31.2149608], [121.4333494, 31.2137312], [121.4323194, 31.2131624], [121.4312895, 31.2130155], [121.4301093, 31.2128871], [121.4292724, 31.2122815], [121.4284785, 31.2111437], [121.4283712, 31.2097489], [121.428972, 31.2076934], [121.429723, 31.2056379], [121.4305599, 31.2040779], [121.4314531, 31.2033217], [121.432247, 31.2001648], [121.4331697, 31.1984762], [121.4339522, 31.1956019], [121.435337, 31.1961085], [121.4401864, 31.1990636], [121.4458083, 31.2014313], [121.4514087, 31.2033951], [121.4542412, 31.204221], [121.4563869, 31.2048083], [121.4597129, 31.2054507], [121.4621161, 31.2065518], [121.4629101, 31.2070841], [121.4648433, 31.2074057], [121.4664254, 31.2077212], [121.4683351, 31.2080148], [121.4675684, 31.2101036], [121.4686861, 31.2105254], [121.4720335, 31.2112044], [121.474655, 31.2120549], [121.4765973, 31.2130598], [121.4774556, 31.2132984], [121.4766077, 31.2158169], [121.4761028, 31.2181816], [121.4785275, 31.2189707], [121.4790302, 31.2192654], [121.479064, 31.2197598], [121.4784202, 31.2208791], [121.4772832, 31.2228793], [121.4781611, 31.2231988], [121.4791713, 31.2236027]]]}}]}