{
  "type": "Feature",
  "properties": {
    "name": "International Settlement (Hongkew)"
  },
  "geometry": {
    "type": "MultiPolygon",
    "coordinates": [
      [
        [
          [
            121.4661232,
            31.246656
          ],
          [
            121.46665800779492,
            31.242990599838613
          ],
          [
            121.46759,
            31.242104
          ],
          [
            121.470959,
            31.243462
          ],
          [
            121.474156,
            31.242123
          ],
          [
            121.476002,
            31.242251
          ],
          [
            121.479456,
            31.245242
          ],
          [
            121.482289,
            31.246159
          ],
          [
            121.48651076279408,
            31.24479719671115
          ],
          [
            121.4868271,
            31.2454253
          ],
          [
            121.486965,
            31.2453758
          ],
          [
            121.4870743,
            31.2453679
          ],
          [
            121.4876309,
            31.2454461
          ],
          [
            121.4877039,
            31.2454407
          ],
          [
            121.4882928,
            31.24558
          ],
          [
            121.4883181,
            31.245609
          ],
          [
            121.4886609,
            31.2458115
          ],
          [
            121.489233,
            31.2462309
          ],
          [
            121.48964936459056,
            31.24650183394059
          ],
          [
            121.4897658,
            31.2465776
          ],
          [
            121.4902657,
            31.2469263
          ],
          [
            121.4908751,
            31.2472731
          ],
          [
            121.4909196,
            31.2473166
          ],
          [
            121.4909426,
            31.2473594
          ],
          [
            121.4910247,
            31.2474043
          ],
          [
            121.4911162,
            31.2474452
          ],
          [
            121.4911332,
            31.247422
          ],
          [
            121.4911773,
            31.2474117
          ],
          [
            121.4915496,
            31.2475685
          ],
          [
            121.4916235,
            31.2473916
          ],
          [
            121.4933883,
            31.2480907
          ],
          [
            121.4941436,
            31.2483706
          ],
          [
            121.4945968,
            31.2485754
          ],
          [
            121.4957655,
            31.2490495
          ],
          [
            121.49625459728415,
            31.24923984098282
          ],
          [
            121.490765,
            31.24737
          ],
          [
            121.489799,
            31.249608
          ],
          [
            121.488426,
            31.25069
          ],
          [
            121.48701,
            31.253203
          ],
          [
            121.48701,
            31.255478
          ],
          [
            121.48250835059915,
            31.258013500618087
          ],
          [
            121.55502384394093,
            31.281303284664276
          ],
          [
            121.4822823,
            31.2579409
          ],
          [
            121.48232721580938,
            31.257820194048993
          ],
          [
            121.4823885,
            31.2576555
          ],
          [
            121.4823885,
            31.257448
          ],
          [
            121.481645,
            31.2566957
          ],
          [
            121.4810988,
            31.2560472
          ],
          [
            121.4812808,
            31.2558526
          ],
          [
            121.4809015,
            31.2553079
          ],
          [
            121.4810684,
            31.2551263
          ],
          [
            121.4789594,
            31.253907
          ],
          [
            121.4787621,
            31.2540886
          ],
          [
            121.4769718,
            31.253025
          ],
          [
            121.47462,
            31.2522856
          ],
          [
            121.47386130376324,
            31.252083525576737
          ],
          [
            121.4716006,
            31.2514814
          ],
          [
            121.4693398,
            31.2505735
          ],
          [
            121.4693435009103,
            31.250567202614405
          ],
          [
            121.4703414,
            31.2488692
          ],
          [
            121.4689301,
            31.2483423
          ],
          [
            121.4693246,
            31.2474473
          ],
          [
            121.4661232,
            31.246656
          ]
        ]
      ],
      [
        [
          [
            121.486323,
            31.239206
          ],
          [
            121.48638936179812,
            31.238974774222573
          ],
          [
            121.4863412354382,
            31.239320237156587
          ],
          [
            121.486323,
            31.239206
          ]
        ]
      ],
      [
        [
          [
            121.4988844547222,
            31.250135610738255
          ],
          [
            121.4993424,
            31.2502553
          ],
          [
            121.5001658,
            31.2505026
          ],
          [
            121.5030967,
            31.2510109
          ],
          [
            121.50374934639633,
            31.251090341977083
          ],
          [
            121.501751,
            31.251112
          ],
          [
            121.4988844547222,
            31.250135610738255
          ]
        ]
      ]
    ]
  }
}