{
  "type": "Feature",
  "properties": {
    "name": "International Settlement ( West )"
  },
  "geometry": {
    "type": "Polygon",
    "coordinates": [
      [
        [
          121.4290027,
          31.2469925
        ],
        [
          121.4344339,
          31.2389279
        ],
        [
          121.4335327,
          31.2384876
        ],
        [
          121.4330177,
          31.2372767
        ],
        [
          121.4334254,
          31.2366713
        ],
        [
          121.43244534321984,
          31.23622490991427
        ],
        [
          121.431878,
          31.2359665
        ],
        [
          121.4340022,
          31.2328399
        ],
        [
          121.43454492979882,
          31.23273585623061
        ],
        [
          121.4348822,
          31.2326712
        ],
        [
          121.4352922,
          31.2320661
        ],
        [
          121.437953,
          31.2288368
        ],
        [
          121.4377599,
          31.2285799
        ],
        [
          121.4380817,
          31.2281396
        ],
        [
          121.4375238,
          31.2276992
        ],
        [
          121.4379959,
          31.2265616
        ],
        [
          121.4385324,
          31.2256808
        ],
        [
          121.4391117,
          31.2249835
        ],
        [
          121.4397125,
          31.2245431
        ],
        [
          121.4401202,
          31.224323
        ],
        [
          121.4399056,
          31.2241028
        ],
        [
          121.4399056,
          31.2237725
        ],
        [
          121.4401202,
          31.223222
        ],
        [
          121.4404206,
          31.2228733
        ],
        [
          121.4407425,
          31.2227265
        ],
        [
          121.4409641,
          31.2226925
        ],
        [
          121.44152348996506,
          31.22278882264007
        ],
        [
          121.4438597,
          31.2231911
        ],
        [
          121.44971721019361,
          31.225457455057946
        ],
        [
          121.4504043,
          31.2257233
        ],
        [
          121.45574169050597,
          31.225778145082856
        ],
        [
          121.458106,
          31.225904
        ],
        [
          121.457784,
          31.228748
        ],
        [
          121.456282,
          31.232564
        ],
        [
          121.456904,
          31.232858
        ],
        [
          121.45388906563348,
          31.23985524780054
        ],
        [
          121.453388,
          31.2397015
        ],
        [
          121.453034,
          31.2396189
        ],
        [
          121.4525297,
          31.2396464
        ],
        [
          121.4520147,
          31.2397748
        ],
        [
          121.45121755800352,
          31.240249678893594
        ],
        [
          121.45121755800349,
          31.240249678893605
        ],
        [
          121.4510599,
          31.2403436
        ],
        [
          121.4501801,
          31.2409949
        ],
        [
          121.4491179,
          31.2421507
        ],
        [
          121.4481738,
          31.2430863
        ],
        [
          121.4477339,
          31.2433982
        ],
        [
          121.4444831,
          31.2453979
        ],
        [
          121.44400004280679,
          31.245793388017074
        ],
        [
          121.4437213,
          31.2460216
        ],
        [
          121.44367381470975,
          31.246067997744326
        ],
        [
          121.4433458,
          31.2463885
        ],
        [
          121.4432815,
          31.2464894
        ],
        [
          121.4432593,
          31.2465409
        ],
        [
          121.4432411,
          31.2466753
        ],
        [
          121.4432467,
          31.2468138
        ],
        [
          121.44330276626476,
          31.247005116528122
        ],
        [
          121.4433197,
          31.2470629
        ],
        [
          121.4434575,
          31.2472874
        ],
        [
          121.44352649939964,
          31.247354899145368
        ],
        [
          121.4440186,
          31.2478363
        ],
        [
          121.4449027,
          31.2487669
        ],
        [
          121.4453189,
          31.2493429
        ],
        [
          121.4456215,
          31.249857
        ],
        [
          121.4457577,
          31.2502008
        ],
        [
          121.4458532,
          31.250601
        ],
        [
          121.4459208,
          31.2511856
        ],
        [
          121.4458671,
          31.2521579
        ],
        [
          121.4457598,
          31.2524055
        ],
        [
          121.4456096,
          31.2525523
        ],
        [
          121.4455238,
          31.2525889
        ],
        [
          121.4454272,
          31.2525889
        ],
        [
          121.4452985,
          31.2525523
        ],
        [
          121.44523154501877,
          31.25253468532035
        ],
        [
          121.445159,
          31.2525156
        ],
        [
          121.4449444,
          31.2524147
        ],
        [
          121.4431205,
          31.2516809
        ],
        [
          121.4419296,
          31.2515066
        ],
        [
          121.4399448,
          31.2513415
        ],
        [
          121.4387861,
          31.2512865
        ],
        [
          121.4383033,
          31.2513691
        ],
        [
          121.43809635180699,
          31.251459707460725
        ],
        [
          121.4378634,
          31.2515617
        ],
        [
          121.4376166,
          31.2517635
        ],
        [
          121.4373484,
          31.2521212
        ],
        [
          121.4370587,
          31.2535703
        ],
        [
          121.4367047,
          31.2542032
        ],
        [
          121.4364043,
          31.2545242
        ],
        [
          121.4361253,
          31.2546801
        ],
        [
          121.4359,
          31.254726
        ],
        [
          121.4356854,
          31.254726
        ],
        [
          121.4354923,
          31.2546068
        ],
        [
          121.4353207,
          31.2544141
        ],
        [
          121.4350632,
          31.2537905
        ],
        [
          121.4346126,
          31.2523596
        ],
        [
          121.43440221758365,
          31.251865061924462
        ],
        [
          121.4339259,
          31.2507454
        ],
        [
          121.4335289,
          31.2499015
        ],
        [
          121.4332929,
          31.2496355
        ],
        [
          121.4330891,
          31.2495255
        ],
        [
          121.4328208,
          31.2495255
        ],
        [
          121.432338,
          31.2496814
        ],
        [
          121.4305892,
          31.2508004
        ],
        [
          121.4302245,
          31.2510022
        ],
        [
          121.4298704,
          31.2510756
        ],
        [
          121.4296451,
          31.2510756
        ],
        [
          121.4295271,
          31.2509747
        ],
        [
          121.4294305,
          31.2508279
        ],
        [
          121.4296037,
          31.2484173
        ],
        [
          121.429652,
          31.2481678
        ],
        [
          121.4296543,
          31.2478501
        ],
        [
          121.4296261,
          31.2476862
        ],
        [
          121.4294833,
          31.2473874
        ],
        [
          121.4293237,
          31.2471776
        ],
        [
          121.4293043,
          31.24719
        ],
        [
          121.4291924,
          31.2470905
        ],
        [
          121.4291298,
          31.2470476
        ],
        [
          121.4290027,
          31.2469925
        ]
      ]
    ]
  }
}