{
  "type": "Feature",
  "properties": {
    "name": "International Settlement ( East )"
  },
  "geometry": {
    "type": "Polygon",
    "coordinates": [
      [
        [
          121.48250835059915,
          31.25801350061809
        ],
        [
          121.48701,
          31.255478
        ],
        [
          121.48701,
          31.253203
        ],
        [
          121.488426,
          31.25069
        ],
        [
          121.489799,
          31.249608
        ],
        [
          121.490765,
          31.24737
        ],
        [
          121.49625459728415,
          31.24923984098282
        ],
        [
          121.4966813,
          31.2494059
        ],
        [
          121.4973008,
          31.2496714
        ],
        [
          121.4976855,
          31.2498054
        ],
        [
          121.4982818,
          31.2499781
        ],
        [
          121.4988844547222,
          31.250135610738255
        ],
        [
          121.501751,
          31.251112
        ],
        [
          121.50374934639633,
          31.251090341977083
        ],
        [
          121.5041647,
          31.2511409
        ],
        [
          121.505428,
          31.2512347
        ],
        [
          121.5072133,
          31.2513301
        ],
        [
          121.5090157,
          31.2512567
        ],
        [
          121.5120664,
          31.2511791
        ],
        [
          121.51402,
          31.2511321
        ],
        [
          121.5142981,
          31.2511242
        ],
        [
          121.5142953,
          31.2511534
        ],
        [
          121.5159384,
          31.2511192
        ],
        [
          121.5159504,
          31.2510653
        ],
        [
          121.5170838,
          31.2510219
        ],
        [
          121.5198046,
          31.2510513
        ],
        [
          121.5202767,
          31.2510879
        ],
        [
          121.52131,
          31.2512499
        ],
        [
          121.5219075,
          31.2514181
        ],
        [
          121.52442942791278,
          31.25164667734212
        ],
        [
          121.524903,
          31.2516896
        ],
        [
          121.52609,
          31.25181
        ],
        [
          121.52699,
          31.25208
        ],
        [
          121.52758,
          31.2523499
        ],
        [
          121.5296752,
          31.2530911
        ],
        [
          121.5296752,
          31.2532672
        ],
        [
          121.5298892,
          31.2533468
        ],
        [
          121.53007,
          31.253414
        ],
        [
          121.5303447,
          31.2533406
        ],
        [
          121.5321899,
          31.25407
        ],
        [
          121.53218917275635,
          31.254107816670025
        ],
        [
          121.5321799,
          31.25459
        ],
        [
          121.5316922,
          31.2552336
        ],
        [
          121.5317988,
          31.2553213
        ],
        [
          121.5319154,
          31.2554171
        ],
        [
          121.5321213,
          31.2550135
        ],
        [
          121.5326299,
          31.25472
        ],
        [
          121.5330483,
          31.2546467
        ],
        [
          121.53412,
          31.2552499
        ],
        [
          121.53501,
          31.2557701
        ],
        [
          121.5359,
          31.2564301
        ],
        [
          121.5364901,
          31.2565601
        ],
        [
          121.5366399,
          31.2566899
        ],
        [
          121.5369301,
          31.2572101
        ],
        [
          121.5370799,
          31.2573401
        ],
        [
          121.53768,
          31.2573401
        ],
        [
          121.5382801,
          31.2572301
        ],
        [
          121.5384199,
          31.25774
        ],
        [
          121.53857,
          31.25787
        ],
        [
          121.5387579,
          31.2578992
        ],
        [
          121.53947,
          31.2580099
        ],
        [
          121.5393099,
          31.25827
        ],
        [
          121.5391601,
          31.25839
        ],
        [
          121.53965,
          31.25861
        ],
        [
          121.5399,
          31.25904
        ],
        [
          121.5400501,
          31.25917
        ],
        [
          121.5406399,
          31.25931
        ],
        [
          121.54078,
          31.25983
        ],
        [
          121.5409301,
          31.25995
        ],
        [
          121.54101898137353,
          31.260033066704235
        ],
        [
          121.5410799,
          31.26009
        ],
        [
          121.54123,
          31.2602101
        ],
        [
          121.5412585617374,
          31.260218758378368
        ],
        [
          121.54212,
          31.2604799
        ],
        [
          121.5422701,
          31.26061
        ],
        [
          121.5424199,
          31.26074
        ],
        [
          121.54256,
          31.26087
        ],
        [
          121.54269292179205,
          31.261330488553423
        ],
        [
          121.5427101,
          31.26139
        ],
        [
          121.54278037102414,
          31.26139826787409
        ],
        [
          121.5439,
          31.26153
        ],
        [
          121.5440501,
          31.2616601
        ],
        [
          121.5446299,
          31.2626999
        ],
        [
          121.54478,
          31.26283
        ],
        [
          121.54537,
          31.26309
        ],
        [
          121.5459799,
          31.2632301
        ],
        [
          121.54611,
          31.26374
        ],
        [
          121.5462701,
          31.26387
        ],
        [
          121.5468599,
          31.2638801
        ],
        [
          121.5477599,
          31.2638901
        ],
        [
          121.5479,
          31.2640199
        ],
        [
          121.5480501,
          31.26415
        ],
        [
          121.5481999,
          31.26428
        ],
        [
          121.5481899,
          31.26454
        ],
        [
          121.5481899,
          31.2647901
        ],
        [
          121.54834,
          31.2649099
        ],
        [
          121.54923,
          31.26506
        ],
        [
          121.54923,
          31.2653201
        ],
        [
          121.5486299,
          31.26531
        ],
        [
          121.5486299,
          31.2655699
        ],
        [
          121.5495199,
          31.26571
        ],
        [
          121.54967,
          31.26584
        ],
        [
          121.54982,
          31.26597
        ],
        [
          121.5501179,
          31.2662607
        ],
        [
          121.5498476,
          31.2665149
        ],
        [
          121.5508315,
          31.2673164
        ],
        [
          121.5509267,
          31.2672379
        ],
        [
          121.5508279,
          31.2671578
        ],
        [
          121.5509003,
          31.2670942
        ],
        [
          121.5511379,
          31.2672931
        ],
        [
          121.5510649,
          31.2673593
        ],
        [
          121.5511383,
          31.2674233
        ],
        [
          121.5510493,
          31.2675013
        ],
        [
          121.5516275,
          31.2679974
        ],
        [
          121.551991,
          31.2683112
        ],
        [
          121.5521118,
          31.2684028
        ],
        [
          121.552278,
          31.2682354
        ],
        [
          121.553242,
          31.2689548
        ],
        [
          121.5539474,
          31.2695251
        ],
        [
          121.5546147,
          31.2701209
        ],
        [
          121.5543463,
          31.2703583
        ],
        [
          121.55438860215027,
          31.270395465460588
        ],
        [
          121.5545983,
          31.2705797
        ],
        [
          121.55463092324466,
          31.270583281394124
        ],
        [
          121.5546484,
          31.2705852
        ],
        [
          121.55472812048791,
          31.270658616110744
        ],
        [
          121.5550619,
          31.270966
        ],
        [
          121.5551548,
          31.2710528
        ],
        [
          121.5551922364071,
          31.27101833867162
        ],
        [
          121.5552152,
          31.2709972
        ],
        [
          121.555147,
          31.2709404
        ],
        [
          121.5552269,
          31.2708724
        ],
        [
          121.5556519,
          31.2712623
        ],
        [
          121.55558313203754,
          31.271321310346167
        ],
        [
          121.5555779,
          31.2713258
        ],
        [
          121.5555526,
          31.2713035
        ],
        [
          121.5554896,
          31.2713606
        ],
        [
          121.55581214827117,
          31.271653085519684
        ],
        [
          121.5559531,
          31.2717809
        ],
        [
          121.5558445,
          31.2719805
        ],
        [
          121.5558688,
          31.2726762
        ],
        [
          121.5558806,
          31.2732699
        ],
        [
          121.5558536,
          31.2734292
        ],
        [
          121.5558088,
          31.2738406
        ],
        [
          121.5558732,
          31.274158
        ],
        [
          121.555895,
          31.274825
        ],
        [
          121.555918,
          31.2755921
        ],
        [
          121.5559368,
          31.2756476
        ],
        [
          121.5559761,
          31.2756553
        ],
        [
          121.5560209,
          31.2758184
        ],
        [
          121.5560586,
          31.2760226
        ],
        [
          121.556072,
          31.2761118
        ],
        [
          121.5560749,
          31.2761497
        ],
        [
          121.5560751,
          31.2761847
        ],
        [
          121.5560195,
          31.2767618
        ],
        [
          121.5559348,
          31.2775901
        ],
        [
          121.5558545,
          31.2775894
        ],
        [
          121.5556247,
          31.2796651
        ],
        [
          121.5557,
          31.2796737
        ],
        [
          121.5555448,
          31.2814706
        ],
        [
          121.55502384394093,
          31.281303284664276
        ],
        [
          121.48250835059915,
          31.25801350061809
        ]
      ]
    ]
  }
}