{
  "type": "Feature",
  "properties": {
    "name": "International Settlement ( Central )"
  },
  "geometry": {
    "type": "Polygon",
    "coordinates": [
      [
        [
          121.45388906563348,
          31.23985524780054
        ],
        [
          121.456904,
          31.232858
        ],
        [
          121.456282,
          31.232564
        ],
        [
          121.457784,
          31.228748
        ],
        [
          121.458106,
          31.225904
        ],
        [
          121.45574169050597,
          31.225778145082856
        ],
        [
          121.458433,
          31.2258058
        ],
        [
          121.45897908774437,
          31.225756522579047
        ],
        [
          121.46176137426,
          31.22550545687531
        ],
        [
          121.4619914,
          31.2254847
        ],
        [
          121.4633682,
          31.2256866
        ],
        [
          121.4640486,
          31.2258315
        ],
        [
          121.4657328,
          31.2255072
        ],
        [
          121.4673866,
          31.2256239
        ],
        [
          121.4686024,
          31.2260048
        ],
        [
          121.4678134,
          31.2273412
        ],
        [
          121.471462,
          31.2288252
        ],
        [
          121.4723239,
          31.22959
        ],
        [
          121.4732671,
          31.2300211
        ],
        [
          121.4738285,
          31.2302121
        ],
        [
          121.4748205,
          31.2310325
        ],
        [
          121.4762515,
          31.2317277
        ],
        [
          121.47840975801311,
          31.232765724596533
        ],
        [
          121.4785933,
          31.232854
        ],
        [
          121.4797153,
          31.23316
        ],
        [
          121.4807046,
          31.2331906
        ],
        [
          121.481618,
          31.2329514
        ],
        [
          121.48218014890267,
          31.232866531987685
        ],
        [
          121.4824473,
          31.2328262
        ],
        [
          121.4829026,
          31.2329653
        ],
        [
          121.4834068,
          31.2332712
        ],
        [
          121.483732,
          31.233591
        ],
        [
          121.4843012,
          31.2337718
        ],
        [
          121.4853419,
          31.2341194
        ],
        [
          121.4865453,
          31.2348007
        ],
        [
          121.4880642,
          31.2353754
        ],
        [
          121.4875028,
          31.2362342
        ],
        [
          121.4872097,
          31.2367653
        ],
        [
          121.4868628,
          31.2374609
        ],
        [
          121.48673562626045,
          31.237768277838132
        ],
        [
          121.4866062,
          31.2380811
        ],
        [
          121.4864225,
          31.2387369
        ],
        [
          121.48638936179812,
          31.238974774222573
        ],
        [
          121.486323,
          31.239206
        ],
        [
          121.4863412354382,
          31.239320237156587
        ],
        [
          121.4863232,
          31.2394497
        ],
        [
          121.4862682,
          31.2402849
        ],
        [
          121.48629,
          31.24095
        ],
        [
          121.486314,
          31.2412323
        ],
        [
          121.4863471,
          31.2415763
        ],
        [
          121.4864412,
          31.2421294
        ],
        [
          121.4866022,
          31.2426934
        ],
        [
          121.4866482,
          31.2428831
        ],
        [
          121.4867319,
          31.243134
        ],
        [
          121.4870333,
          31.2438499
        ],
        [
          121.48707508908724,
          31.243917513804085
        ],
        [
          121.4873092,
          31.2442963
        ],
        [
          121.487144857412,
          31.24435458227216
        ],
        [
          121.4865989,
          31.2445482
        ],
        [
          121.4864188,
          31.2446146
        ],
        [
          121.48651076279408,
          31.24479719671115
        ],
        [
          121.482289,
          31.246159
        ],
        [
          121.479456,
          31.245242
        ],
        [
          121.476002,
          31.242251
        ],
        [
          121.474156,
          31.242123
        ],
        [
          121.470959,
          31.243462
        ],
        [
          121.46759,
          31.242104
        ],
        [
          121.46665800779492,
          31.242990599838613
        ],
        [
          121.46683142872287,
          31.241802028723196
        ],
        [
          121.4668941,
          31.2413725
        ],
        [
          121.4665845,
          31.2412425
        ],
        [
          121.4659729,
          31.2410132
        ],
        [
          121.465297,
          31.2409307
        ],
        [
          121.4647606,
          31.2409674
        ],
        [
          121.463795,
          31.2412334
        ],
        [
          121.4629138,
          31.2417115
        ],
        [
          121.46263343597404,
          31.24191174108366
        ],
        [
          121.4620677,
          31.2423158
        ],
        [
          121.4611664,
          31.2426277
        ],
        [
          121.46067310933428,
          31.242758471925757
        ],
        [
          121.46028994471533,
          31.242860049309208
        ],
        [
          121.4597824,
          31.2429946
        ],
        [
          121.4592889,
          31.2430588
        ],
        [
          121.4589241,
          31.2430588
        ],
        [
          121.4580229,
          31.2429579
        ],
        [
          121.45785387535803,
          31.242907956923187
        ],
        [
          121.4571538,
          31.2427011
        ],
        [
          121.456832,
          31.2425359
        ],
        [
          121.4564243,
          31.2422057
        ],
        [
          121.4560166,
          31.2417195
        ],
        [
          121.4552441,
          31.2407472
        ],
        [
          121.4547184,
          31.2403344
        ],
        [
          121.4540662,
          31.2399096
        ],
        [
          121.45388906563348,
          31.23985524780054
        ]
      ]
    ]
  }
}