{
  "type": "FeatureCollection",
  "features": [
    {
      "type": "Feature",
      "properties": {
        "name": "Pudong",
        "color": "#ff8c00"
      },
      "geometry": {
        "type": "Polygon",
        "coordinates": [
          [
            [
              121.490078,
              31.240765
            ],
            [
              121.490421,
              31.238343
            ],
            [
              121.499176,
              31.230197
            ],
            [
              121.502953,
              31.225867
            ],
            [
              121.506472,
              31.216802
            ],
            [
              121.502008,
              31.207369
            ],
            [
              121.558485,
              31.267767
            ],
            [
              121.533337,
              31.250378
            ],
            [
              121.525612,
              31.247663
            ],
            [
              121.502609,
              31.246636
            ],
            [
              121.492224,
              31.24348
            ],
            [
              121.490078,
              31.240765
            ]
          ]
        ]
      }
    },
    {
      "type": "Feature",
      "properties": {
        "name": "Siccawei",
        "color": "#1e90ff"
      },
      "geometry": {
        "type": "Polygon",
        "coordinates": [
          [
            [
              121.408882,
              31.209572
            ],
            [
              121.421499,
              31.18057
            ],
            [
              121.437788,
              31.18634
            ],
            [
              121.435158,
              31.192158
            ],
            [
              121.435224,
              31.192173
            ],
            [
              121.435606,
              31.192294
            ],
            [
              121.436991,
              31.192801
            ],
            [
              121.437396,
              31.192972
            ],
            [
              121.437777,
              31.193179
            ],
            [
              121.438897,
              31.193861
            ],
            [
              121.437331,
              31.197324
            ],
            [
              121.435337,
              31.196109
            ],
            [
              121.433952,
              31.195602
            ],
            [
              121.433867,
              31.195913
            ],
            [
              121.433662,
              31.195862
            ],
            [
              121.433337,
              31.196801
            ],
            [
              121.433055,
              31.19776
            ],
            [
              121.432777,
              31.198613
            ],
            [
              121.431983,
              31.200317
            ],
            [
              121.431756,
              31.200976
            ],
            [
              121.431636,
              31.201411
            ],
            [
              121.431534,
              31.201789
            ],
            [
              121.431442,
              31.202255
            ],
            [
              121.431423,
              31.202484
            ],
            [
              121.431349,
              31.202894
            ],
            [
              121.431146,
              31.203352
            ],
            [
              121.430259,
              31.204244
            ],
            [
              121.429659,
              31.205231
            ],
            [
              121.4294,
              31.205783
            ],
            [
              121.428929,
              31.206872
            ],
            [
              121.428718,
              31.207425
            ],
            [
              121.428505,
              31.207977
            ],
            [
              121.428127,
              31.2098
            ],
            [
              121.428071,
              31.210298
            ],
            [
              121.428053,
              31.210898
            ],
            [
              121.428108,
              31.211276
            ],
            [
              121.428598,
              31.212042
            ],
            [
              121.429096,
              31.212516
            ],
            [
              121.429484,
              31.212839
            ],
            [
              121.429853,
              31.21295
            ],
            [
              121.430287,
              31.213044
            ],
            [
              121.431571,
              31.2131
            ],
            [
              121.432014,
              31.21325
            ],
            [
              121.432623,
              31.213439
            ],
            [
              121.433574,
              31.214212
            ],
            [
              121.434295,
              31.215239
            ],
            [
              121.434492,
              31.216269
            ],
            [
              121.434513,
              31.216378
            ],
            [
              121.434542,
              31.216527
            ],
            [
              121.434726,
              31.217387
            ],
            [
              121.434967,
              31.218019
            ],
            [
              121.435262,
              31.218437
            ],
            [
              121.435918,
              31.218776
            ],
            [
              121.436933,
              31.218926
            ],
            [
              121.438863,
              31.219053
            ],
            [
              121.439482,
              31.219187
            ],
            [
              121.440912,
              31.219899
            ],
            [
              121.441642,
              31.220396
            ],
            [
              121.441402,
              31.220902
            ],
            [
              121.44119,
              31.221422
            ],
            [
              121.440981,
              31.222072
            ],
            [
              121.440788,
              31.22272
            ],
            [
              121.440743,
              31.222727
            ],
            [
              121.440421,
              31.222873
            ],
            [
              121.44012,
              31.223222
            ],
            [
              121.439906,
              31.223773
            ],
            [
              121.439906,
              31.224103
            ],
            [
              121.44012,
              31.224323
            ],
            [
              121.439713,
              31.224543
            ],
            [
              121.439112,
              31.224984
            ],
            [
              121.438575,
              31.22563
            ],
            [
              121.434538,
              31.224452
            ],
            [
              121.434802,
              31.224019
            ],
            [
              121.435103,
              31.223597
            ],
            [
              121.435682,
              31.2229
            ],
            [
              121.435906,
              31.222663
            ],
            [
              121.435915,
              31.222635
            ],
            [
              121.435992,
              31.222438
            ],
            [
              121.435202,
              31.222321
            ],
            [
              121.434819,
              31.222248
            ],
            [
              121.434447,
              31.222146
            ],
            [
              121.434087,
              31.222014
            ],
            [
              121.433742,
              31.221855
            ],
            [
              121.433086,
              31.221516
            ],
            [
              121.432749,
              31.221321
            ],
            [
              121.432434,
              31.2211
            ],
            [
              121.432146,
              31.220854
            ],
            [
              121.431888,
              31.220585
            ],
            [
              121.431661,
              31.220296
            ],
            [
              121.431366,
              31.219878
            ],
            [
              121.431142,
              31.219516
            ],
            [
              121.430968,
              31.219134
            ],
            [
              121.430727,
              31.218502
            ],
            [
              121.430588,
              31.218035
            ],
            [
              121.430545,
              31.217832
            ],
            [
              121.428277,
              31.216289
            ],
            [
              121.428088,
              31.216232
            ],
            [
              121.427667,
              31.216083
            ],
            [
              121.427267,
              31.215896
            ],
            [
              121.426894,
              31.215673
            ],
            [
              121.42655,
              31.215417
            ],
            [
              121.426162,
              31.215094
            ],
            [
              121.425967,
              31.21492
            ],
            [
              121.425469,
              31.214446
            ],
            [
              121.425166,
              31.214121
            ],
            [
              121.424908,
              31.213769
            ],
            [
              121.424418,
              31.213003
            ],
            [
              121.424245,
              31.212698
            ],
            [
              121.424105,
              31.212381
            ],
            [
              121.424044,
              31.212187
            ],
            [
              121.408882,
              31.209572
            ]
          ]
        ]
      }
    },
    {
      "type": "Feature",
      "properties": {
        "name": "Nanshi ( Stateowned Heavy Industries )",
        "color": "#d2691e"
      },
      "geometry": {
        "type": "Polygon",
        "coordinates": [
          [
            [
              121.433473,
              31.195366
            ],
            [
              121.445918,
              31.169335
            ],
            [
              121.459394,
              31.172786
            ],
            [
              121.462955,
              31.187142
            ],
            [
              121.482739,
              31.192135
            ],
            [
              121.493168,
              31.197789
            ],
            [
              121.50321,
              31.215921
            ],
            [
              121.502695,
              31.221353
            ],
            [
              121.496515,
              31.227995
            ],
            [
              121.496303,
              31.22794
            ],
            [
              121.4962,
              31.227855
            ],
            [
              121.495305,
              31.227524
            ],
            [
              121.494106,
              31.227219
            ],
            [
              121.493052,
              31.22707
            ],
            [
              121.493467,
              31.226422
            ],
            [
              121.494232,
              31.224962
            ],
            [
              121.494671,
              31.223905
            ],
            [
              121.49475,
              31.223042
            ],
            [
              121.49469,
              31.222705
            ],
            [
              121.494427,
              31.222041
            ],
            [
              121.494232,
              31.220984
            ],
            [
              121.494297,
              31.21958
            ],
            [
              121.493971,
              31.218342
            ],
            [
              121.493323,
              31.217111
            ],
            [
              121.492572,
              31.216927
            ],
            [
              121.492417,
              31.216655
            ],
            [
              121.488799,
              31.217054
            ],
            [
              121.48828,
              31.217021
            ],
            [
              121.485938,
              31.216478
            ],
            [
              121.484881,
              31.216451
            ],
            [
              121.484766,
              31.216517
            ],
            [
              121.484714,
              31.216508
            ],
            [
              121.484471,
              31.216687
            ],
            [
              121.48358,
              31.217202
            ],
            [
              121.482356,
              31.218246
            ],
            [
              121.48098,
              31.219261
            ],
            [
              121.478647,
              31.223393
            ],
            [
              121.478161,
              31.223199
            ],
            [
              121.477283,
              31.222879
            ],
            [
              121.47842,
              31.220879
            ],
            [
              121.479064,
              31.21976
            ],
            [
              121.47903,
              31.219265
            ],
            [
              121.478528,
              31.218971
            ],
            [
              121.477562,
              31.218657
            ],
            [
              121.476517,
              31.21816
            ],
            [
              121.476712,
              31.215506
            ],
            [
              121.477456,
              31.213298
            ],
            [
              121.476597,
              31.21306
            ],
            [
              121.474655,
              31.212055
            ],
            [
              121.472034,
              31.211204
            ],
            [
              121.468686,
              31.210525
            ],
            [
              121.467649,
              31.210134
            ],
            [
              121.467634,
              31.209926
            ],
            [
              121.468335,
              31.208015
            ],
            [
              121.466425,
              31.207721
            ],
            [
              121.46509,
              31.207455
            ],
            [
              121.461905,
              31.206455
            ],
            [
              121.459713,
              31.205451
            ],
            [
              121.457094,
              31.204945
            ],
            [
              121.445536,
              31.201317
            ],
            [
              121.443426,
              31.200428
            ],
            [
              121.437376,
              31.197351
            ],
            [
              121.435337,
              31.196109
            ],
            [
              121.433952,
              31.195602
            ],
            [
              121.43395,
              31.195609
            ],
            [
              121.433473,
              31.195366
            ]
          ]
        ]
      }
    },
    {
      "type": "Feature",
      "properties": {
        "name": "Zhabei",
        "color": "#8A2BE2"
      },
      "geometry": {
        "type": "Polygon",
        "coordinates": [
          [
            [
              121.445921,
              31.251186
            ],
            [
              121.445853,
              31.250601
            ],
            [
              121.445758,
              31.250201
            ],
            [
              121.445622,
              31.249857
            ],
            [
              121.445319,
              31.249343
            ],
            [
              121.444903,
              31.248767
            ],
            [
              121.444019,
              31.247836
            ],
            [
              121.443458,
              31.247287
            ],
            [
              121.443247,
              31.246814
            ],
            [
              121.443346,
              31.246389
            ],
            [
              121.444059,
              31.245745
            ],
            [
              121.44554,
              31.244748
            ],
            [
              121.447734,
              31.243398
            ],
            [
              121.448491,
              31.242772
            ],
            [
              121.449606,
              31.241619
            ],
            [
              121.45106,
              31.240344
            ],
            [
              121.45253,
              31.239646
            ],
            [
              121.453388,
              31.239702
            ],
            [
              121.454066,
              31.23991
            ],
            [
              121.454718,
              31.240334
            ],
            [
              121.455244,
              31.240747
            ],
            [
              121.455731,
              31.241361
            ],
            [
              121.456424,
              31.242206
            ],
            [
              121.457154,
              31.242701
            ],
            [
              121.458023,
              31.242958
            ],
            [
              121.458924,
              31.243059
            ],
            [
              121.459782,
              31.242995
            ],
            [
              121.461166,
              31.242628
            ],
            [
              121.462068,
              31.242316
            ],
            [
              121.462914,
              31.241712
            ],
            [
              121.463795,
              31.241233
            ],
            [
              121.464761,
              31.240967
            ],
            [
              121.465297,
              31.240931
            ],
            [
              121.465973,
              31.241013
            ],
            [
              121.466585,
              31.241243
            ],
            [
              121.466894,
              31.241373
            ],
            [
              121.466123,
              31.246656
            ],
            [
              121.469325,
              31.247447
            ],
            [
              121.46893,
              31.248342
            ],
            [
              121.470341,
              31.248869
            ],
            [
              121.46934,
              31.250574
            ],
            [
              121.467247,
              31.250103
            ],
            [
              121.462762,
              31.247553
            ],
            [
              121.445704,
              31.25357
            ],
            [
              121.445921,
              31.251186
            ]
          ]
        ]
      }
    },
    {
      "type": "Feature",
      "properties": {
        "name": "Paoshan",
        "color": "#8A2BE2"
      },
      "geometry": {
        "type": "Polygon",
        "coordinates": [
          [
            [
              121.555545,
              31.281471
            ],
            [
              121.54089,
              31.311408
            ],
            [
              121.434202,
              31.275763
            ],
            [
              121.445704,
              31.25357
            ],
            [
              121.462762,
              31.247553
            ],
            [
              121.467247,
              31.250103
            ],
            [
              121.46934,
              31.250574
            ],
            [
              121.471601,
              31.251481
            ],
            [
              121.47462,
              31.252286
            ],
            [
              121.476972,
              31.253025
            ],
            [
              121.478762,
              31.254089
            ],
            [
              121.478959,
              31.253907
            ],
            [
              121.481068,
              31.255126
            ],
            [
              121.480902,
              31.255308
            ],
            [
              121.481281,
              31.255853
            ],
            [
              121.481099,
              31.256047
            ],
            [
              121.482389,
              31.257448
            ],
            [
              121.482389,
              31.257656
            ],
            [
              121.482282,
              31.257941
            ],
            [
              121.555545,
              31.281471
            ]
          ]
        ]
      }
    },
    {
      "type": "Feature",
      "properties": {
        "name": "International Settlement ( Central )"
      },
      "geometry": {
        "type": "Polygon",
        "coordinates": []
      }
    },
    {
      "type": "Feature",
      "properties": {
        "name": "International Settlement ( West )"
      },
      "geometry": {
        "type": "Polygon",
        "coordinates": []
      }
    },
    {
      "type": "Feature",
      "properties": {
        "name": "International Settlement ( East )"
      },
      "geometry": {
        "type": "Polygon",
        "coordinates": []
      }
    },
    {
      "type": "Feature",
      "properties": {
        "name": "International Settlement (Hongkew)"
      },
      "geometry": {
        "type": "Polygon",
        "coordinates": []
      }
    },
    {
      "type": "Feature",
      "properties": {
        "name": "French Concession"
      },
      "geometry": {
        "type": "Polygon",
        "coordinates": []
      }
    },
    {
      "type": "Feature",
      "properties": {
        "name": "Nanshi ( Old City )"
      },
      "geometry": {
        "type": "Polygon",
        "coordinates": []
      }
    }
  ]
}