{
"type": "FeatureCollection",
"features": [
{
  "type": "Feature",
  "id": "relation/2661232",
  "properties": {
    "admin_level": "8",
    "boundary": "administrative",
    "name": "Shanghai Old City",
    "type": "boundary",
    "id": "relation/2661232"
  },
  "geometry": {
    "type": "Polygon",
    "coordinates": [
      [
        [
          121.4930516,
          31.2270698
        ],
        [
          121.4928922,
          31.2273228
        ],
        [
          121.4925736,
          31.2281662
        ],
        [
          121.4923005,
          31.229029
        ],
        [
          121.4920046,
          31.2294117
        ],
        [
          121.4913522,
          31.2298982
        ],
        [
          121.4910943,
          31.2302096
        ],
        [
          121.4907353,
          31.2308853
        ],
        [
          121.4902149,
          31.2312886
        ],
        [
          121.4894669,
          31.231525
        ],
        [
          121.4871577,
          31.2316223
        ],
        [
          121.4852225,
          31.2316084
        ],
        [
          121.4839866,
          31.2313581
        ],
        [
          121.4812058,
          31.2304821
        ],
        [
          121.4799537,
          31.2297868
        ],
        [
          121.4791569,
          31.228883
        ],
        [
          121.4784576,
          31.2278122
        ],
        [
          121.4782865,
          31.2270892
        ],
        [
          121.478421,
          31.2259271
        ],
        [
          121.4791713,
          31.2236027
        ],
        [
          121.4804312,
          31.2210967
        ],
        [
          121.4815921,
          31.219202
        ],
        [
          121.4820097,
          31.2185422
        ],
        [
          121.4835801,
          31.2172015
        ],
        [
          121.484881,
          31.2164505
        ],
        [
          121.4859381,
          31.2164784
        ],
        [
          121.4882798,
          31.2170208
        ],
        [
          121.4893693,
          31.2170903
        ],
        [
          121.4909467,
          31.216979
        ],
        [
          121.492329,
          31.2168678
        ],
        [
          121.493323,
          31.2171114
        ],
        [
          121.4939714,
          31.2183419
        ],
        [
          121.4942967,
          31.2195797
        ],
        [
          121.4942316,
          31.2209843
        ],
        [
          121.4944268,
          31.2220412
        ],
        [
          121.4946902,
          31.2227054
        ],
        [
          121.4947503,
          31.2230417
        ],
        [
          121.4946707,
          31.2239046
        ],
        [
          121.4942316,
          31.2249615
        ],
        [
          121.4934673,
          31.2264216
        ],
        [
          121.4930516,
          31.2270698
        ]
      ]
    ]
  }
},
{
  "type": "Feature",
  "id": "relation/2661233",
  "properties": {
    "admin_level": "6",
    "boundary": "administrative",
    "end_date": "1943",
    "name": "上海法租界 La concession française de Changhaï",
    "name:fr": "La concession française de Changhaï",
    "name:zh": "上海法租界",
    "start_date:edtf": "/1943",
    "start_date:edtf:source": "script that set it to \"some time before the end_date\" when start_date was missing",
    "type": "boundary",
    "id": "relation/2661233"
  },
  "geometry": {
    "type": "Polygon",
    "coordinates": [
      [
        [
          121.4791713,
          31.2236027
        ],
        [
          121.478421,
          31.2259271
        ],
        [
          121.4782865,
          31.2270892
        ],
        [
          121.4784576,
          31.2278122
        ],
        [
          121.4791569,
          31.228883
        ],
        [
          121.4799537,
          31.2297868
        ],
        [
          121.4812058,
          31.2304821
        ],
        [
          121.4839866,
          31.2313581
        ],
        [
          121.4852225,
          31.2316084
        ],
        [
          121.4871577,
          31.2316223
        ],
        [
          121.4894669,
          31.231525
        ],
        [
          121.4902149,
          31.2312886
        ],
        [
          121.4907353,
          31.2308853
        ],
        [
          121.4910943,
          31.2302096
        ],
        [
          121.4913522,
          31.2298982
        ],
        [
          121.4920046,
          31.2294117
        ],
        [
          121.4923005,
          31.229029
        ],
        [
          121.4925736,
          31.2281662
        ],
        [
          121.4928922,
          31.2273228
        ],
        [
          121.4930516,
          31.2270698
        ],
        [
          121.4941061,
          31.227219
        ],
        [
          121.4953047,
          31.2275239
        ],
        [
          121.4961999,
          31.2278548
        ],
        [
          121.4966551,
          31.228231
        ],
        [
          121.4951897,
          31.2294685
        ],
        [
          121.493777,
          31.2306107
        ],
        [
          121.4917826,
          31.232115
        ],
        [
          121.4916493,
          31.2319743
        ],
        [
          121.4915149,
          31.2320648
        ],
        [
          121.4914802,
          31.2320919
        ],
        [
          121.4914843,
          31.2321139
        ],
        [
          121.4913885,
          31.2322024
        ],
        [
          121.490688,
          31.2327345
        ],
        [
          121.4897858,
          31.233467
        ],
        [
          121.4896666,
          31.2335823
        ],
        [
          121.4890942,
          31.234117
        ],
        [
          121.4891249,
          31.234138
        ],
        [
          121.4889203,
          31.2343492
        ],
        [
          121.4888787,
          31.2343886
        ],
        [
          121.4888216,
          31.234445
        ],
        [
          121.4888105,
          31.234456
        ],
        [
          121.4887084,
          31.2345567
        ],
        [
          121.4886899,
          31.234575
        ],
        [
          121.4886712,
          31.2345934
        ],
        [
          121.4886101,
          31.2346537
        ],
        [
          121.4885903,
          31.2346736
        ],
        [
          121.4885681,
          31.234696
        ],
        [
          121.4885161,
          31.2347465
        ],
        [
          121.4885488,
          31.2347711
        ],
        [
          121.4884414,
          31.234891
        ],
        [
          121.4880642,
          31.2353754
        ],
        [
          121.4865453,
          31.2348007
        ],
        [
          121.4853419,
          31.2341194
        ],
        [
          121.4843012,
          31.2337718
        ],
        [
          121.483732,
          31.233591
        ],
        [
          121.4834068,
          31.2332712
        ],
        [
          121.4829026,
          31.2329653
        ],
        [
          121.4824473,
          31.2328262
        ],
        [
          121.481618,
          31.2329514
        ],
        [
          121.4807046,
          31.2331906
        ],
        [
          121.4797153,
          31.23316
        ],
        [
          121.4785933,
          31.232854
        ],
        [
          121.4762515,
          31.2317277
        ],
        [
          121.4748205,
          31.2310325
        ],
        [
          121.4738285,
          31.2302121
        ],
        [
          121.4732671,
          31.2300211
        ],
        [
          121.4723239,
          31.22959
        ],
        [
          121.471462,
          31.2288252
        ],
        [
          121.4678134,
          31.2273412
        ],
        [
          121.4686024,
          31.2260048
        ],
        [
          121.4673866,
          31.2256239
        ],
        [
          121.4657328,
          31.2255072
        ],
        [
          121.4640486,
          31.2258315
        ],
        [
          121.4633682,
          31.2256866
        ],
        [
          121.4619914,
          31.2254847
        ],
        [
          121.458433,
          31.2258058
        ],
        [
          121.4504043,
          31.2257233
        ],
        [
          121.4438597,
          31.2231911
        ],
        [
          121.4409641,
          31.2226925
        ],
        [
          121.441907,
          31.2202184
        ],
        [
          121.4406665,
          31.2194751
        ],
        [
          121.4393146,
          31.2189246
        ],
        [
          121.4365466,
          31.2187594
        ],
        [
          121.4356414,
          31.2184017
        ],
        [
          121.4352591,
          31.2178786
        ],
        [
          121.4349373,
          31.2168326
        ],
        [
          121.4346154,
          31.2149608
        ],
        [
          121.4333494,
          31.2137312
        ],
        [
          121.4323194,
          31.2131624
        ],
        [
          121.4312895,
          31.2130155
        ],
        [
          121.4301093,
          31.2128871
        ],
        [
          121.4292724,
          31.2122815
        ],
        [
          121.4284785,
          31.2111437
        ],
        [
          121.4283712,
          31.2097489
        ],
        [
          121.428972,
          31.2076934
        ],
        [
          121.429723,
          31.2056379
        ],
        [
          121.4305599,
          31.2040779
        ],
        [
          121.4314531,
          31.2033217
        ],
        [
          121.432247,
          31.2001648
        ],
        [
          121.4331697,
          31.1984762
        ],
        [
          121.4339522,
          31.1956019
        ],
        [
          121.435337,
          31.1961085
        ],
        [
          121.4401864,
          31.1990636
        ],
        [
          121.4458083,
          31.2014313
        ],
        [
          121.4514087,
          31.2033951
        ],
        [
          121.4542412,
          31.204221
        ],
        [
          121.4563869,
          31.2048083
        ],
        [
          121.4597129,
          31.2054507
        ],
        [
          121.4621161,
          31.2065518
        ],
        [
          121.4629101,
          31.2070841
        ],
        [
          121.4648433,
          31.2074057
        ],
        [
          121.4664254,
          31.2077212
        ],
        [
          121.4683351,
          31.2080148
        ],
        [
          121.4675684,
          31.2101036
        ],
        [
          121.4686861,
          31.2105254
        ],
        [
          121.4720335,
          31.2112044
        ],
        [
          121.474655,
          31.2120549
        ],
        [
          121.4765973,
          31.2130598
        ],
        [
          121.4774556,
          31.2132984
        ],
        [
          121.4766077,
          31.2158169
        ],
        [
          121.4761028,
          31.2181816
        ],
        [
          121.4785275,
          31.2189707
        ],
        [
          121.4790302,
          31.2192654
        ],
        [
          121.479064,
          31.2197598
        ],
        [
          121.4784202,
          31.2208791
        ],
        [
          121.4772832,
          31.2228793
        ],
        [
          121.4781611,
          31.2231988
        ],
        [
          121.4791713,
          31.2236027
        ]
      ]
    ]
  }
},
{
  "type": "Feature",
  "id": "relation/2661237",
  "properties": {
    "admin_level": "6",
    "boundary": "administrative",
    "end_date": "1943",
    "name": "上海公共租界 Shanghai International Settlement",
    "name:en": "Shanghai International Settlement",
    "name:zh": "上海公共租界",
    "start_date:edtf": "/1943",
    "start_date:edtf:source": "script that set it to \"some time before the end_date\" when start_date was missing",
    "type": "boundary",
    "id": "relation/2661237"
  },
  "geometry": {
    "type": "Polygon",
    "coordinates": [
      [
        [
          121.4880642,
          31.2353754
        ],
        [
          121.4875028,
          31.2362342
        ],
        [
          121.4872097,
          31.2367653
        ],
        [
          121.4868628,
          31.2374609
        ],
        [
          121.4866062,
          31.2380811
        ],
        [
          121.4864225,
          31.2387369
        ],
        [
          121.4863232,
          31.2394497
        ],
        [
          121.4862682,
          31.2402849
        ],
        [
          121.48629,
          31.24095
        ],
        [
          121.486314,
          31.2412323
        ],
        [
          121.4863471,
          31.2415763
        ],
        [
          121.4864412,
          31.2421294
        ],
        [
          121.4866022,
          31.2426934
        ],
        [
          121.4866482,
          31.2428831
        ],
        [
          121.4867319,
          31.243134
        ],
        [
          121.4870333,
          31.2438499
        ],
        [
          121.4873092,
          31.2442963
        ],
        [
          121.4865989,
          31.2445482
        ],
        [
          121.4864188,
          31.2446146
        ],
        [
          121.4868271,
          31.2454253
        ],
        [
          121.486965,
          31.2453758
        ],
        [
          121.4870743,
          31.2453679
        ],
        [
          121.4876309,
          31.2454461
        ],
        [
          121.4877039,
          31.2454407
        ],
        [
          121.4882928,
          31.24558
        ],
        [
          121.4883181,
          31.245609
        ],
        [
          121.4886609,
          31.2458115
        ],
        [
          121.489233,
          31.2462309
        ],
        [
          121.4897658,
          31.2465776
        ],
        [
          121.4902657,
          31.2469263
        ],
        [
          121.4908751,
          31.2472731
        ],
        [
          121.4909196,
          31.2473166
        ],
        [
          121.4909426,
          31.2473594
        ],
        [
          121.4910247,
          31.2474043
        ],
        [
          121.4911162,
          31.2474452
        ],
        [
          121.4911332,
          31.247422
        ],
        [
          121.4911773,
          31.2474117
        ],
        [
          121.4915496,
          31.2475685
        ],
        [
          121.4916235,
          31.2473916
        ],
        [
          121.4933883,
          31.2480907
        ],
        [
          121.4941436,
          31.2483706
        ],
        [
          121.4945968,
          31.2485754
        ],
        [
          121.4957655,
          31.2490495
        ],
        [
          121.4966813,
          31.2494059
        ],
        [
          121.4973008,
          31.2496714
        ],
        [
          121.4976855,
          31.2498054
        ],
        [
          121.4982818,
          31.2499781
        ],
        [
          121.4993424,
          31.2502553
        ],
        [
          121.5001658,
          31.2505026
        ],
        [
          121.5030967,
          31.2510109
        ],
        [
          121.5041647,
          31.2511409
        ],
        [
          121.505428,
          31.2512347
        ],
        [
          121.5072133,
          31.2513301
        ],
        [
          121.5090157,
          31.2512567
        ],
        [
          121.5120664,
          31.2511791
        ],
        [
          121.51402,
          31.2511321
        ],
        [
          121.5142981,
          31.2511242
        ],
        [
          121.5142953,
          31.2511534
        ],
        [
          121.5159384,
          31.2511192
        ],
        [
          121.5159504,
          31.2510653
        ],
        [
          121.5170838,
          31.2510219
        ],
        [
          121.5198046,
          31.2510513
        ],
        [
          121.5202767,
          31.2510879
        ],
        [
          121.52131,
          31.2512499
        ],
        [
          121.5219075,
          31.2514181
        ],
        [
          121.524903,
          31.2516896
        ],
        [
          121.52609,
          31.25181
        ],
        [
          121.52699,
          31.25208
        ],
        [
          121.52758,
          31.2523499
        ],
        [
          121.5296752,
          31.2530911
        ],
        [
          121.5296752,
          31.2532672
        ],
        [
          121.5298892,
          31.2533468
        ],
        [
          121.53007,
          31.253414
        ],
        [
          121.5303447,
          31.2533406
        ],
        [
          121.5321899,
          31.25407
        ],
        [
          121.5321799,
          31.25459
        ],
        [
          121.5316922,
          31.2552336
        ],
        [
          121.5317988,
          31.2553213
        ],
        [
          121.5319154,
          31.2554171
        ],
        [
          121.5321213,
          31.2550135
        ],
        [
          121.5326299,
          31.25472
        ],
        [
          121.5330483,
          31.2546467
        ],
        [
          121.53412,
          31.2552499
        ],
        [
          121.53501,
          31.2557701
        ],
        [
          121.5359,
          31.2564301
        ],
        [
          121.5364901,
          31.2565601
        ],
        [
          121.5366399,
          31.2566899
        ],
        [
          121.5369301,
          31.2572101
        ],
        [
          121.5370799,
          31.2573401
        ],
        [
          121.53768,
          31.2573401
        ],
        [
          121.5382801,
          31.2572301
        ],
        [
          121.5384199,
          31.25774
        ],
        [
          121.53857,
          31.25787
        ],
        [
          121.5387579,
          31.2578992
        ],
        [
          121.53947,
          31.2580099
        ],
        [
          121.5393099,
          31.25827
        ],
        [
          121.5391601,
          31.25839
        ],
        [
          121.53965,
          31.25861
        ],
        [
          121.5399,
          31.25904
        ],
        [
          121.5400501,
          31.25917
        ],
        [
          121.5406399,
          31.25931
        ],
        [
          121.54078,
          31.25983
        ],
        [
          121.5409301,
          31.25995
        ],
        [
          121.5410799,
          31.26009
        ],
        [
          121.54123,
          31.2602101
        ],
        [
          121.54212,
          31.2604799
        ],
        [
          121.5422701,
          31.26061
        ],
        [
          121.5424199,
          31.26074
        ],
        [
          121.54256,
          31.26087
        ],
        [
          121.5427101,
          31.26139
        ],
        [
          121.5439,
          31.26153
        ],
        [
          121.5440501,
          31.2616601
        ],
        [
          121.54434,
          31.26218
        ],
        [
          121.5446299,
          31.2626999
        ],
        [
          121.54478,
          31.26283
        ],
        [
          121.54537,
          31.26309
        ],
        [
          121.5459799,
          31.2632301
        ],
        [
          121.54611,
          31.26374
        ],
        [
          121.5462701,
          31.26387
        ],
        [
          121.5468599,
          31.2638801
        ],
        [
          121.5477599,
          31.2638901
        ],
        [
          121.5479,
          31.2640199
        ],
        [
          121.5480501,
          31.26415
        ],
        [
          121.5481999,
          31.26428
        ],
        [
          121.5481899,
          31.26454
        ],
        [
          121.5481899,
          31.2647901
        ],
        [
          121.54834,
          31.2649099
        ],
        [
          121.54923,
          31.26506
        ],
        [
          121.54923,
          31.2653201
        ],
        [
          121.5486299,
          31.26531
        ],
        [
          121.5486299,
          31.2655699
        ],
        [
          121.5495199,
          31.26571
        ],
        [
          121.54967,
          31.26584
        ],
        [
          121.54982,
          31.26597
        ],
        [
          121.5501179,
          31.2662607
        ],
        [
          121.5498476,
          31.2665149
        ],
        [
          121.5508315,
          31.2673164
        ],
        [
          121.5509267,
          31.2672379
        ],
        [
          121.5508279,
          31.2671578
        ],
        [
          121.5509003,
          31.2670942
        ],
        [
          121.5511379,
          31.2672931
        ],
        [
          121.5510649,
          31.2673593
        ],
        [
          121.5511383,
          31.2674233
        ],
        [
          121.5510493,
          31.2675013
        ],
        [
          121.5516275,
          31.2679974
        ],
        [
          121.551991,
          31.2683112
        ],
        [
          121.5521118,
          31.2684028
        ],
        [
          121.552278,
          31.2682354
        ],
        [
          121.553242,
          31.2689548
        ],
        [
          121.5539474,
          31.2695251
        ],
        [
          121.5546147,
          31.2701209
        ],
        [
          121.5543463,
          31.2703583
        ],
        [
          121.5545983,
          31.2705797
        ],
        [
          121.5546484,
          31.2705852
        ],
        [
          121.5550619,
          31.270966
        ],
        [
          121.5551548,
          31.2710528
        ],
        [
          121.5552152,
          31.2709972
        ],
        [
          121.555147,
          31.2709404
        ],
        [
          121.5552269,
          31.2708724
        ],
        [
          121.5556519,
          31.2712623
        ],
        [
          121.5555779,
          31.2713258
        ],
        [
          121.5555526,
          31.2713035
        ],
        [
          121.5554896,
          31.2713606
        ],
        [
          121.5559531,
          31.2717809
        ],
        [
          121.5558445,
          31.2719805
        ],
        [
          121.5558688,
          31.2726762
        ],
        [
          121.5558806,
          31.2732699
        ],
        [
          121.5558536,
          31.2734292
        ],
        [
          121.5558088,
          31.2738406
        ],
        [
          121.5558732,
          31.274158
        ],
        [
          121.555895,
          31.274825
        ],
        [
          121.555918,
          31.2755921
        ],
        [
          121.5559368,
          31.2756476
        ],
        [
          121.5559761,
          31.2756553
        ],
        [
          121.5560209,
          31.2758184
        ],
        [
          121.5560586,
          31.2760226
        ],
        [
          121.556072,
          31.2761118
        ],
        [
          121.5560749,
          31.2761497
        ],
        [
          121.5560751,
          31.2761847
        ],
        [
          121.5560195,
          31.2767618
        ],
        [
          121.5559348,
          31.2775901
        ],
        [
          121.5558545,
          31.2775894
        ],
        [
          121.5556247,
          31.2796651
        ],
        [
          121.5557,
          31.2796737
        ],
        [
          121.5555448,
          31.2814706
        ],
        [
          121.4822823,
          31.2579409
        ],
        [
          121.4823885,
          31.2576555
        ],
        [
          121.4823885,
          31.257448
        ],
        [
          121.481645,
          31.2566957
        ],
        [
          121.4810988,
          31.2560472
        ],
        [
          121.4812808,
          31.2558526
        ],
        [
          121.4809015,
          31.2553079
        ],
        [
          121.4810684,
          31.2551263
        ],
        [
          121.4789594,
          31.253907
        ],
        [
          121.4787621,
          31.2540886
        ],
        [
          121.4769718,
          31.253025
        ],
        [
          121.47462,
          31.2522856
        ],
        [
          121.4716006,
          31.2514814
        ],
        [
          121.4693398,
          31.2505735
        ],
        [
          121.4703414,
          31.2488692
        ],
        [
          121.4689301,
          31.2483423
        ],
        [
          121.4693246,
          31.2474473
        ],
        [
          121.4661232,
          31.246656
        ],
        [
          121.4668941,
          31.2413725
        ],
        [
          121.4665845,
          31.2412425
        ],
        [
          121.4659729,
          31.2410132
        ],
        [
          121.465297,
          31.2409307
        ],
        [
          121.4647606,
          31.2409674
        ],
        [
          121.463795,
          31.2412334
        ],
        [
          121.4629138,
          31.2417115
        ],
        [
          121.4620677,
          31.2423158
        ],
        [
          121.4611664,
          31.2426277
        ],
        [
          121.4597824,
          31.2429946
        ],
        [
          121.4592889,
          31.2430588
        ],
        [
          121.4589241,
          31.2430588
        ],
        [
          121.4580229,
          31.2429579
        ],
        [
          121.4571538,
          31.2427011
        ],
        [
          121.456832,
          31.2425359
        ],
        [
          121.4564243,
          31.2422057
        ],
        [
          121.4560166,
          31.2417195
        ],
        [
          121.4552441,
          31.2407472
        ],
        [
          121.4547184,
          31.2403344
        ],
        [
          121.4540662,
          31.2399096
        ],
        [
          121.453388,
          31.2397015
        ],
        [
          121.453034,
          31.2396189
        ],
        [
          121.4525297,
          31.2396464
        ],
        [
          121.4520147,
          31.2397748
        ],
        [
          121.4510599,
          31.2403436
        ],
        [
          121.4501801,
          31.2409949
        ],
        [
          121.4491179,
          31.2421507
        ],
        [
          121.4481738,
          31.2430863
        ],
        [
          121.4477339,
          31.2433982
        ],
        [
          121.4444831,
          31.2453979
        ],
        [
          121.4437213,
          31.2460216
        ],
        [
          121.4433458,
          31.2463885
        ],
        [
          121.4432815,
          31.2464894
        ],
        [
          121.4432593,
          31.2465409
        ],
        [
          121.4432411,
          31.2466753
        ],
        [
          121.4432467,
          31.2468138
        ],
        [
          121.4433197,
          31.2470629
        ],
        [
          121.4434575,
          31.2472874
        ],
        [
          121.4440186,
          31.2478363
        ],
        [
          121.4449027,
          31.2487669
        ],
        [
          121.4453189,
          31.2493429
        ],
        [
          121.4456215,
          31.249857
        ],
        [
          121.4457577,
          31.2502008
        ],
        [
          121.4458532,
          31.250601
        ],
        [
          121.4459208,
          31.2511856
        ],
        [
          121.4458671,
          31.2521579
        ],
        [
          121.4457598,
          31.2524055
        ],
        [
          121.4456096,
          31.2525523
        ],
        [
          121.4455238,
          31.2525889
        ],
        [
          121.4454272,
          31.2525889
        ],
        [
          121.4452985,
          31.2525523
        ],
        [
          121.445159,
          31.2525156
        ],
        [
          121.4449444,
          31.2524147
        ],
        [
          121.4431205,
          31.2516809
        ],
        [
          121.4419296,
          31.2515066
        ],
        [
          121.4399448,
          31.2513415
        ],
        [
          121.4387861,
          31.2512865
        ],
        [
          121.4383033,
          31.2513691
        ],
        [
          121.4378634,
          31.2515617
        ],
        [
          121.4376166,
          31.2517635
        ],
        [
          121.4373484,
          31.2521212
        ],
        [
          121.4370587,
          31.2535703
        ],
        [
          121.4367047,
          31.2542032
        ],
        [
          121.4364043,
          31.2545242
        ],
        [
          121.4361253,
          31.2546801
        ],
        [
          121.4359,
          31.254726
        ],
        [
          121.4356854,
          31.254726
        ],
        [
          121.4354923,
          31.2546068
        ],
        [
          121.4353207,
          31.2544141
        ],
        [
          121.4350632,
          31.2537905
        ],
        [
          121.4346126,
          31.2523596
        ],
        [
          121.4339259,
          31.2507454
        ],
        [
          121.4335289,
          31.2499015
        ],
        [
          121.4332929,
          31.2496355
        ],
        [
          121.4330891,
          31.2495255
        ],
        [
          121.4328208,
          31.2495255
        ],
        [
          121.432338,
          31.2496814
        ],
        [
          121.4305892,
          31.2508004
        ],
        [
          121.4302245,
          31.2510022
        ],
        [
          121.4298704,
          31.2510756
        ],
        [
          121.4296451,
          31.2510756
        ],
        [
          121.4295271,
          31.2509747
        ],
        [
          121.4294305,
          31.2508279
        ],
        [
          121.4296037,
          31.2484173
        ],
        [
          121.429652,
          31.2481678
        ],
        [
          121.4296543,
          31.2478501
        ],
        [
          121.4296261,
          31.2476862
        ],
        [
          121.4294833,
          31.2473874
        ],
        [
          121.4293237,
          31.2471776
        ],
        [
          121.4293043,
          31.24719
        ],
        [
          121.4291924,
          31.2470905
        ],
        [
          121.4291298,
          31.2470476
        ],
        [
          121.4290027,
          31.2469925
        ],
        [
          121.4344339,
          31.2389279
        ],
        [
          121.4335327,
          31.2384876
        ],
        [
          121.4330177,
          31.2372767
        ],
        [
          121.4334254,
          31.2366713
        ],
        [
          121.431878,
          31.2359665
        ],
        [
          121.4340022,
          31.2328399
        ],
        [
          121.4348822,
          31.2326712
        ],
        [
          121.4352922,
          31.2320661
        ],
        [
          121.437953,
          31.2288368
        ],
        [
          121.4377599,
          31.2285799
        ],
        [
          121.4380817,
          31.2281396
        ],
        [
          121.4375238,
          31.2276992
        ],
        [
          121.4379959,
          31.2265616
        ],
        [
          121.4385324,
          31.2256808
        ],
        [
          121.4391117,
          31.2249835
        ],
        [
          121.4397125,
          31.2245431
        ],
        [
          121.4401202,
          31.224323
        ],
        [
          121.4399056,
          31.2241028
        ],
        [
          121.4399056,
          31.2237725
        ],
        [
          121.4401202,
          31.223222
        ],
        [
          121.4404206,
          31.2228733
        ],
        [
          121.4407425,
          31.2227265
        ],
        [
          121.4409641,
          31.2226925
        ],
        [
          121.4438597,
          31.2231911
        ],
        [
          121.4504043,
          31.2257233
        ],
        [
          121.458433,
          31.2258058
        ],
        [
          121.4619914,
          31.2254847
        ],
        [
          121.4633682,
          31.2256866
        ],
        [
          121.4640486,
          31.2258315
        ],
        [
          121.4657328,
          31.2255072
        ],
        [
          121.4673866,
          31.2256239
        ],
        [
          121.4686024,
          31.2260048
        ],
        [
          121.4678134,
          31.2273412
        ],
        [
          121.471462,
          31.2288252
        ],
        [
          121.4723239,
          31.22959
        ],
        [
          121.4732671,
          31.2300211
        ],
        [
          121.4738285,
          31.2302121
        ],
        [
          121.4748205,
          31.2310325
        ],
        [
          121.4762515,
          31.2317277
        ],
        [
          121.4785933,
          31.232854
        ],
        [
          121.4797153,
          31.23316
        ],
        [
          121.4807046,
          31.2331906
        ],
        [
          121.481618,
          31.2329514
        ],
        [
          121.4824473,
          31.2328262
        ],
        [
          121.4829026,
          31.2329653
        ],
        [
          121.4834068,
          31.2332712
        ],
        [
          121.483732,
          31.233591
        ],
        [
          121.4843012,
          31.2337718
        ],
        [
          121.4853419,
          31.2341194
        ],
        [
          121.4865453,
          31.2348007
        ],
        [
          121.4880642,
          31.2353754
        ]
      ]
    ]
  }
},
{
  "type": "Feature",
  "id": "way/49205589",
  "properties": {
    "admin_level": "6",
    "boundary": "administrative",
    "name": "走马塘",
    "waterway": "river",
    "id": "way/49205589"
  },
  "geometry": {
    "type": "LineString",
    "coordinates": [
      [
        121.4153721,
        31.2987469
      ],
      [
        121.4179886,
        31.2989445
      ],
      [
        121.4189888,
        31.2990883
      ],
      [
        121.4220073,
        31.3002903
      ],
      [
        121.4223232,
        31.300384
      ]
    ]
  }
},
{
  "type": "Feature",
  "id": "way/85711508",
  "properties": {
    "admin_level": "6",
    "boundary": "administrative",
    "waterway": "river",
    "id": "way/85711508"
  },
  "geometry": {
    "type": "LineString",
    "coordinates": [
      [
        121.3971208,
        31.1811178
      ],
      [
        121.3996539,
        31.181853
      ],
      [
        121.4056052,
        31.1835762
      ],
      [
        121.4075686,
        31.1840443
      ],
      [
        121.4079334,
        31.1841178
      ],
      [
        121.4082818,
        31.1841277
      ]
    ]
  }
},
{
  "type": "Feature",
  "id": "way/95513507",
  "properties": {
    "admin_level": "6",
    "boundary": "administrative",
    "waterway": "river",
    "id": "way/95513507"
  },
  "geometry": {
    "type": "LineString",
    "coordinates": [
      [
        121.3537485,
        31.2716024
      ],
      [
        121.3533409,
        31.2725206
      ],
      [
        121.3530472,
        31.2727655
      ],
      [
        121.3526616,
        31.2728178
      ],
      [
        121.3520958,
        31.2729457
      ],
      [
        121.3519958,
        31.2729458
      ],
      [
        121.3514361,
        31.2727867
      ],
      [
        121.3511953,
        31.2727621
      ],
      [
        121.3510497,
        31.2727362
      ],
      [
        121.3509301,
        31.272751
      ],
      [
        121.3508177,
        31.2727879
      ],
      [
        121.3507095,
        31.2728508
      ],
      [
        121.3503665,
        31.2731699
      ],
      [
        121.3502684,
        31.2732315
      ],
      [
        121.3501272,
        31.2732894
      ],
      [
        121.3496255,
        31.2733658
      ],
      [
        121.3491939,
        31.2733898
      ]
    ]
  }
},
{
  "type": "Feature",
  "id": "way/95513511",
  "properties": {
    "admin_level": "6",
    "boundary": "administrative",
    "waterway": "river",
    "id": "way/95513511"
  },
  "geometry": {
    "type": "LineString",
    "coordinates": [
      [
        121.3550001,
        31.2950378
      ],
      [
        121.3588274,
        31.2938541
      ]
    ]
  }
},
{
  "type": "Feature",
  "id": "way/95513524",
  "properties": {
    "admin_level": "6",
    "boundary": "administrative",
    "name": "河南浜",
    "waterway": "river",
    "id": "way/95513524"
  },
  "geometry": {
    "type": "LineString",
    "coordinates": [
      [
        121.3735934,
        31.2916975
      ],
      [
        121.3766029,
        31.2915315
      ]
    ]
  }
},
{
  "type": "Feature",
  "id": "way/95513549",
  "properties": {
    "admin_level": "6",
    "boundary": "administrative",
    "name": "河南浜",
    "waterway": "river",
    "id": "way/95513549"
  },
  "geometry": {
    "type": "LineString",
    "coordinates": [
      [
        121.3652616,
        31.2921561
      ],
      [
        121.366935,
        31.2920639
      ],
      [
        121.3681351,
        31.2919978
      ]
    ]
  }
},
{
  "type": "Feature",
  "id": "way/122613117",
  "properties": {
    "admin_level": "6",
    "boat": "no",
    "boundary": "administrative",
    "layer": "-1",
    "name": "中槎浦",
    "waterway": "river",
    "id": "way/122613117"
  },
  "geometry": {
    "type": "LineString",
    "coordinates": [
      [
        121.3301706,
        31.2972427
      ],
      [
        121.3296417,
        31.297867
      ],
      [
        121.3293055,
        31.2985728
      ],
      [
        121.3281212,
        31.2999858
      ]
    ]
  }
},
{
  "type": "Feature",
  "id": "way/122613121",
  "properties": {
    "admin_level": "6",
    "boundary": "administrative",
    "layer": "-1",
    "name": "横沥河",
    "waterway": "river",
    "id": "way/122613121"
  },
  "geometry": {
    "type": "LineString",
    "coordinates": [
      [
        121.3245156,
        31.2865105
      ],
      [
        121.3273943,
        31.2876286
      ],
      [
        121.3278784,
        31.2878054
      ]
    ]
  }
},
{
  "type": "Feature",
  "id": "way/122613128",
  "properties": {
    "admin_level": "6",
    "boundary": "administrative",
    "layer": "-1",
    "waterway": "river",
    "id": "way/122613128"
  },
  "geometry": {
    "type": "LineString",
    "coordinates": [
      [
        121.3275936,
        31.2950373
      ],
      [
        121.3279355,
        31.2950507
      ],
      [
        121.3284483,
        31.2950104
      ],
      [
        121.3288903,
        31.2949953
      ],
      [
        121.3291182,
        31.2950121
      ],
      [
        121.3293834,
        31.2950557
      ],
      [
        121.3297584,
        31.2951171
      ]
    ]
  }
},
{
  "type": "Feature",
  "id": "way/128722050",
  "properties": {
    "admin_level": "6",
    "boat": "no",
    "boundary": "administrative",
    "layer": "-1",
    "name": "中槎浦",
    "waterway": "river",
    "id": "way/128722050"
  },
  "geometry": {
    "type": "LineString",
    "coordinates": [
      [
        121.342345,
        31.2428029
      ],
      [
        121.3427495,
        31.243706
      ],
      [
        121.342857,
        31.2443959
      ],
      [
        121.3428084,
        31.2449299
      ]
    ]
  }
},
{
  "type": "Feature",
  "id": "way/198200681",
  "properties": {
    "admin_level": "8",
    "boundary": "administrative",
    "id": "way/198200681"
  },
  "geometry": {
    "type": "LineString",
    "coordinates": [
      [
        121.4409641,
        31.2226925
      ],
      [
        121.441907,
        31.2202184
      ],
      [
        121.4406665,
        31.2194751
      ],
      [
        121.4393146,
        31.2189246
      ],
      [
        121.4365466,
        31.2187594
      ],
      [
        121.4356414,
        31.2184017
      ],
      [
        121.4352591,
        31.2178786
      ],
      [
        121.4349373,
        31.2168326
      ],
      [
        121.4346154,
        31.2149608
      ],
      [
        121.4333494,
        31.2137312
      ],
      [
        121.4323194,
        31.2131624
      ],
      [
        121.4312895,
        31.2130155
      ],
      [
        121.4301093,
        31.2128871
      ],
      [
        121.4292724,
        31.2122815
      ],
      [
        121.4284785,
        31.2111437
      ],
      [
        121.4283712,
        31.2097489
      ],
      [
        121.428972,
        31.2076934
      ],
      [
        121.429723,
        31.2056379
      ],
      [
        121.4305599,
        31.2040779
      ],
      [
        121.4314531,
        31.2033217
      ],
      [
        121.432247,
        31.2001648
      ],
      [
        121.4331697,
        31.1984762
      ],
      [
        121.4339522,
        31.1956019
      ],
      [
        121.435337,
        31.1961085
      ],
      [
        121.4401864,
        31.1990636
      ],
      [
        121.4458083,
        31.2014313
      ],
      [
        121.4514087,
        31.2033951
      ],
      [
        121.4542412,
        31.204221
      ],
      [
        121.4563869,
        31.2048083
      ],
      [
        121.4597129,
        31.2054507
      ],
      [
        121.4621161,
        31.2065518
      ],
      [
        121.4629101,
        31.2070841
      ],
      [
        121.4648433,
        31.2074057
      ],
      [
        121.4664254,
        31.2077212
      ],
      [
        121.4683351,
        31.2080148
      ],
      [
        121.4675684,
        31.2101036
      ],
      [
        121.4686861,
        31.2105254
      ],
      [
        121.4720335,
        31.2112044
      ],
      [
        121.474655,
        31.2120549
      ],
      [
        121.4765973,
        31.2130598
      ],
      [
        121.4774556,
        31.2132984
      ],
      [
        121.4766077,
        31.2158169
      ],
      [
        121.4761028,
        31.2181816
      ],
      [
        121.4785275,
        31.2189707
      ],
      [
        121.4790302,
        31.2192654
      ],
      [
        121.479064,
        31.2197598
      ],
      [
        121.4784202,
        31.2208791
      ],
      [
        121.4772832,
        31.2228793
      ],
      [
        121.4781611,
        31.2231988
      ],
      [
        121.4791713,
        31.2236027
      ]
    ]
  }
},
{
  "type": "Feature",
  "id": "way/198200451",
  "properties": {
    "admin_level": "8",
    "boundary": "administrative",
    "id": "way/198200451"
  },
  "geometry": {
    "type": "LineString",
    "coordinates": [
      [
        121.4880642,
        31.2353754
      ],
      [
        121.4865453,
        31.2348007
      ],
      [
        121.4853419,
        31.2341194
      ],
      [
        121.4843012,
        31.2337718
      ],
      [
        121.483732,
        31.233591
      ],
      [
        121.4834068,
        31.2332712
      ],
      [
        121.4829026,
        31.2329653
      ],
      [
        121.4824473,
        31.2328262
      ],
      [
        121.481618,
        31.2329514
      ],
      [
        121.4807046,
        31.2331906
      ],
      [
        121.4797153,
        31.23316
      ],
      [
        121.4785933,
        31.232854
      ],
      [
        121.4762515,
        31.2317277
      ],
      [
        121.4748205,
        31.2310325
      ],
      [
        121.4738285,
        31.2302121
      ],
      [
        121.4732671,
        31.2300211
      ],
      [
        121.4723239,
        31.22959
      ],
      [
        121.471462,
        31.2288252
      ],
      [
        121.4678134,
        31.2273412
      ],
      [
        121.4686024,
        31.2260048
      ],
      [
        121.4673866,
        31.2256239
      ],
      [
        121.4657328,
        31.2255072
      ],
      [
        121.4640486,
        31.2258315
      ],
      [
        121.4633682,
        31.2256866
      ],
      [
        121.4619914,
        31.2254847
      ],
      [
        121.458433,
        31.2258058
      ],
      [
        121.4504043,
        31.2257233
      ],
      [
        121.4438597,
        31.2231911
      ],
      [
        121.4409641,
        31.2226925
      ]
    ]
  }
},
{
  "type": "Feature",
  "id": "way/198200456",
  "properties": {
    "admin_level": "6",
    "boundary": "administrative",
    "end_date": "1945",
    "name": "上海縣城 Shanghai Countytown",
    "name:en": "Shanghai Countytown",
    "name:zh": "上海縣城",
    "start_date": "1553",
    "id": "way/198200456"
  },
  "geometry": {
    "type": "LineString",
    "coordinates": [
      [
        121.4791713,
        31.2236027
      ],
      [
        121.4804312,
        31.2210967
      ],
      [
        121.4815921,
        31.219202
      ],
      [
        121.4820097,
        31.2185422
      ],
      [
        121.4835801,
        31.2172015
      ],
      [
        121.484881,
        31.2164505
      ],
      [
        121.4859381,
        31.2164784
      ],
      [
        121.4882798,
        31.2170208
      ],
      [
        121.4893693,
        31.2170903
      ],
      [
        121.4909467,
        31.216979
      ],
      [
        121.492329,
        31.2168678
      ],
      [
        121.493323,
        31.2171114
      ],
      [
        121.4939714,
        31.2183419
      ],
      [
        121.4942967,
        31.2195797
      ],
      [
        121.4942316,
        31.2209843
      ],
      [
        121.4944268,
        31.2220412
      ],
      [
        121.4946902,
        31.2227054
      ],
      [
        121.4947503,
        31.2230417
      ],
      [
        121.4946707,
        31.2239046
      ],
      [
        121.4942316,
        31.2249615
      ],
      [
        121.4934673,
        31.2264216
      ],
      [
        121.4930516,
        31.2270698
      ]
    ]
  }
},
{
  "type": "Feature",
  "id": "way/198200529",
  "properties": {
    "admin_level": "6",
    "boundary": "administrative",
    "end_date": "1945",
    "start_date": "1553",
    "id": "way/198200529"
  },
  "geometry": {
    "type": "LineString",
    "coordinates": [
      [
        121.4930516,
        31.2270698
      ],
      [
        121.4928922,
        31.2273228
      ],
      [
        121.4925736,
        31.2281662
      ],
      [
        121.4923005,
        31.229029
      ],
      [
        121.4920046,
        31.2294117
      ],
      [
        121.4913522,
        31.2298982
      ],
      [
        121.4910943,
        31.2302096
      ],
      [
        121.4907353,
        31.2308853
      ],
      [
        121.4902149,
        31.2312886
      ],
      [
        121.4894669,
        31.231525
      ],
      [
        121.4871577,
        31.2316223
      ],
      [
        121.4852225,
        31.2316084
      ],
      [
        121.4839866,
        31.2313581
      ],
      [
        121.4812058,
        31.2304821
      ],
      [
        121.4799537,
        31.2297868
      ],
      [
        121.4791569,
        31.228883
      ],
      [
        121.4784576,
        31.2278122
      ],
      [
        121.4782865,
        31.2270892
      ],
      [
        121.478421,
        31.2259271
      ],
      [
        121.4791713,
        31.2236027
      ]
    ]
  }
},
{
  "type": "Feature",
  "id": "way/198200527",
  "properties": {
    "admin_level": "8",
    "boundary": "administrative",
    "id": "way/198200527"
  },
  "geometry": {
    "type": "LineString",
    "coordinates": [
      [
        121.4966551,
        31.228231
      ],
      [
        121.4951897,
        31.2294685
      ],
      [
        121.493777,
        31.2306107
      ],
      [
        121.4917826,
        31.232115
      ],
      [
        121.4916493,
        31.2319743
      ],
      [
        121.4915149,
        31.2320648
      ],
      [
        121.4914802,
        31.2320919
      ],
      [
        121.4914843,
        31.2321139
      ],
      [
        121.4913885,
        31.2322024
      ],
      [
        121.490688,
        31.2327345
      ],
      [
        121.4897858,
        31.233467
      ],
      [
        121.4896666,
        31.2335823
      ],
      [
        121.4890942,
        31.234117
      ],
      [
        121.4891249,
        31.234138
      ],
      [
        121.4889203,
        31.2343492
      ],
      [
        121.4888787,
        31.2343886
      ],
      [
        121.4888216,
        31.234445
      ],
      [
        121.4888105,
        31.234456
      ],
      [
        121.4887084,
        31.2345567
      ],
      [
        121.4886899,
        31.234575
      ],
      [
        121.4886712,
        31.2345934
      ],
      [
        121.4886101,
        31.2346537
      ],
      [
        121.4885903,
        31.2346736
      ],
      [
        121.4885681,
        31.234696
      ],
      [
        121.4885161,
        31.2347465
      ],
      [
        121.4885488,
        31.2347711
      ],
      [
        121.4884414,
        31.234891
      ],
      [
        121.4880642,
        31.2353754
      ]
    ]
  }
},
{
  "type": "Feature",
  "id": "node/2083646604",
  "properties": {
    "id": "node/2083646604"
  },
  "geometry": {
    "type": "Point",
    "coordinates": [
      121.4643936,
      31.219674
    ]
  }
},
{
  "type": "Feature",
  "id": "node/2083647520",
  "properties": {
    "id": "node/2083647520"
  },
  "geometry": {
    "type": "Point",
    "coordinates": [
      121.468187,
      31.2387642
    ]
  }
}
]
}
