{"type":"FeatureCollection","features":[{"type":"Feature","id":"relation/2661232","properties":{"admin_level":"8","boundary":"administrative","name":"Shanghai Old City","type":"boundary","id":"relation/2661232"},"geometry":{"type":"Polygon","coordinates":[[[121.4930516,31.2270698],[121.4928922,31.2273228],[121.4925736,31.2281662],[121.4923005,31.229029],[121.4920046,31.2294117],[121.4913522,31.2298982],[121.4910943,31.2302096],[121.4907353,31.2308853],[121.4902149,31.2312886],[121.4894669,31.231525],[121.4871577,31.2316223],[121.4852225,31.2316084],[121.4839866,31.2313581],[121.4812058,31.2304821],[121.4799537,31.2297868],[121.4791569,31.228883],[121.4784576,31.2278122],[121.4782865,31.2270892],[121.478421,31.2259271],[121.4791713,31.2236027],[121.4804312,31.2210967],[121.4815921,31.219202],[121.4820097,31.2185422],[121.4835801,31.2172015],[121.484881,31.2164505],[121.4859381,31.2164784],[121.4882798,31.2170208],[121.4893693,31.2170903],[121.4909467,31.216979],[121.492329,31.2168678],[121.493323,31.2171114],[121.4939714,31.2183419],[121.4942967,31.2195797],[121.4942316,31.2209843],[121.4944268,31.2220412],[121.4946902,31.2227054],[121.4947503,31.2230417],[121.4946707,31.2239046],[121.4942316,31.2249615],[121.4934673,31.2264216],[121.4930516,31.2270698]]]}}]}